{
"type": "FeatureCollection",
"name": "The_Junction",
"crs": { "type": "name", "properties": { "name": "urn:ogc:def:crs:OGC:1.3:CRS84" } },
"features": [
{ "type": "Feature", "properties": { "osmid": "347014133", "name": "Glebe Road", "highway": "secondary", "maxspeed": "50", "oneway": false, "reversed": "False", "length": 12.248, "lanes": null, "service": null }, "geometry": { "type": "LineString", "coordinates": [ [ 151.758544300000011, -32.9387158 ], [ 151.75867550000001, -32.9387188 ] ] } },
{ "type": "Feature", "properties": { "osmid": "398832521", "name": "Glebe Road", "highway": "secondary", "maxspeed": "50", "oneway": false, "reversed": "True", "length": 12.555, "lanes": null, "service": null }, "geometry": { "type": "LineString", "coordinates": [ [ 151.758544300000011, -32.9387158 ], [ 151.75840980000001, -32.9387133 ] ] } },
{ "type": "Feature", "properties": { "osmid": "398832534", "name": "Union Street", "highway": "tertiary", "maxspeed": "50", "oneway": false, "reversed": "False", "length": 11.625, "lanes": null, "service": null }, "geometry": { "type": "LineString", "coordinates": [ [ 151.758544300000011, -32.9387158 ], [ 151.7584684, -32.9387987 ] ] } },
{ "type": "Feature", "properties": { "osmid": "675793035", "name": "Union Street", "highway": "secondary", "maxspeed": "40", "oneway": false, "reversed": "True", "length": 12.268, "lanes": null, "service": null }, "geometry": { "type": "LineString", "coordinates": [ [ 151.758544300000011, -32.9387158 ], [ 151.7586253, -32.9386289 ] ] } },
{ "type": "Feature", "properties": { "osmid": "347014133", "name": "Glebe Road", "highway": "secondary", "maxspeed": "50", "oneway": false, "reversed": "True", "length": 14.998, "lanes": null, "service": null }, "geometry": { "type": "LineString", "coordinates": [ [ 151.7606237, -32.9387529 ], [ 151.760463, -32.9387511 ] ] } },
{ "type": "Feature", "properties": { "osmid": "894429258", "name": "Kenrick Street", "highway": "residential", "maxspeed": "40", "oneway": false, "reversed": "True", "length": 8.151, "lanes": null, "service": null }, "geometry": { "type": "LineString", "coordinates": [ [ 151.7606237, -32.9387529 ], [ 151.7606226, -32.9386796 ] ] } },
{ "type": "Feature", "properties": { "osmid": "894429261", "name": "Glebe Road", "highway": "secondary", "maxspeed": "50", "oneway": false, "reversed": "False", "length": 12.275, "lanes": null, "service": null }, "geometry": { "type": "LineString", "coordinates": [ [ 151.7606237, -32.9387529 ], [ 151.7607552, -32.9387554 ] ] } },
{ "type": "Feature", "properties": { "osmid": "990204266", "name": "Watkins Street", "highway": "tertiary", "maxspeed": "50", "oneway": false, "reversed": "False", "length": 9.864, "lanes": "2", "service": null }, "geometry": { "type": "LineString", "coordinates": [ [ 151.7606237, -32.9387529 ], [ 151.760624799999988, -32.9388416 ] ] } },
{ "type": "Feature", "properties": { "osmid": "18068765", "name": "Bruce Street", "highway": "residential", "maxspeed": "50", "oneway": false, "reversed": "False", "length": 7.676, "lanes": null, "service": null }, "geometry": { "type": "LineString", "coordinates": [ [ 151.762155400000012, -32.9387821 ], [ 151.7621579, -32.9387131 ] ] } },
{ "type": "Feature", "properties": { "osmid": "347014132", "name": "Glebe Road", "highway": "secondary", "maxspeed": "50", "oneway": false, "reversed": "False", "length": 136.174, "lanes": null, "service": null }, "geometry": { "type": "LineString", "coordinates": [ [ 151.762155400000012, -32.9387821 ], [ 151.763614100000012, -32.9388142 ] ] } },
{ "type": "Feature", "properties": { "osmid": "894429261", "name": "Glebe Road", "highway": "secondary", "maxspeed": "50", "oneway": false, "reversed": "True", "length": 130.701, "lanes": null, "service": null }, "geometry": { "type": "LineString", "coordinates": [ [ 151.762155400000012, -32.9387821 ], [ 151.7607552, -32.9387554 ] ] } },
{ "type": "Feature", "properties": { "osmid": "201866809", "name": "Bar Beach Avenue", "highway": "residential", "maxspeed": "50", "oneway": false, "reversed": "False", "length": 62.852, "lanes": null, "service": null }, "geometry": { "type": "LineString", "coordinates": [ [ 151.7609472, -32.9395297 ], [ 151.760282, -32.9394412 ] ] } },
{ "type": "Feature", "properties": { "osmid": "201866809", "name": "Bar Beach Avenue", "highway": "residential", "maxspeed": "50", "oneway": false, "reversed": "True", "length": 257.783, "lanes": null, "service": null }, "geometry": { "type": "LineString", "coordinates": [ [ 151.7609472, -32.9395297 ], [ 151.761827, -32.9396554 ], [ 151.763335899999987, -32.939871 ], [ 151.7636704, -32.9399187 ] ] } },
{ "type": "Feature", "properties": { "osmid": "18068765", "name": "Bruce Street", "highway": "residential", "maxspeed": "50", "oneway": false, "reversed": "True", "length": 22.057, "lanes": null, "service": null }, "geometry": { "type": "LineString", "coordinates": [ [ 151.7628575, -32.9375491 ], [ 151.76271460000001, -32.9377071 ] ] } },
{ "type": "Feature", "properties": { "osmid": "18069600", "name": "Kemp Street", "highway": "residential", "maxspeed": "50", "oneway": false, "reversed": "False", "length": 19.449, "lanes": null, "service": null }, "geometry": { "type": "LineString", "coordinates": [ [ 151.7628575, -32.9375491 ], [ 151.7626931, -32.9374416 ] ] } },
{ "type": "Feature", "properties": { "osmid": "18069600", "name": "Kemp Street", "highway": "residential", "maxspeed": "50", "oneway": false, "reversed": "True", "length": 9.556, "lanes": null, "service": null }, "geometry": { "type": "LineString", "coordinates": [ [ 151.7608291, -32.9362198 ], [ 151.7608784, -32.9362522 ], [ 151.760909700000013, -32.9362728 ] ] } },
{ "type": "Feature", "properties": { "osmid": "675793032", "name": "Kemp Street", "highway": "residential", "maxspeed": "40", "oneway": false, "reversed": "False", "length": 9.551, "lanes": null, "service": null }, "geometry": { "type": "LineString", "coordinates": [ [ 151.7608291, -32.9362198 ], [ 151.7607768, -32.9361859 ], [ 151.7607481, -32.9361673 ] ] } },
{ "type": "Feature", "properties": { "osmid": [ 675793033, 895482061 ], "name": "Union Street", "highway": "secondary", "maxspeed": [ "40", "60" ], "oneway": false, "reversed": "False", "length": 65.547, "lanes": null, "service": null }, "geometry": { "type": "LineString", "coordinates": [ [ 151.7608291, -32.9362198 ], [ 151.7607318, -32.9363275 ], [ 151.7604033, -32.9366886 ] ] } },
{ "type": "Feature", "properties": { "osmid": "675793033", "name": "Union Street", "highway": "secondary", "maxspeed": "40", "oneway": false, "reversed": "True", "length": 8.547, "lanes": null, "service": null }, "geometry": { "type": "LineString", "coordinates": [ [ 151.759385400000014, -32.9378074 ], [ 151.7594397, -32.9377455 ] ] } },
{ "type": "Feature", "properties": { "osmid": "675793034", "name": "Kenrick Street", "highway": "residential", "maxspeed": "40", "oneway": false, "reversed": "False", "length": 8.114, "lanes": null, "service": null }, "geometry": { "type": "LineString", "coordinates": [ [ 151.759385400000014, -32.9378074 ], [ 151.7594516, -32.9378547 ] ] } },
{ "type": "Feature", "properties": { "osmid": "675793035", "name": "Union Street", "highway": "secondary", "maxspeed": "40", "oneway": false, "reversed": "False", "length": 8.797, "lanes": null, "service": null }, "geometry": { "type": "LineString", "coordinates": [ [ 151.759385400000014, -32.9378074 ], [ 151.7593276, -32.9378699 ] ] } },
{ "type": "Feature", "properties": { "osmid": "675793040", "name": "Kenrick Street", "highway": "residential", "maxspeed": "40", "oneway": false, "reversed": "True", "length": 8.471, "lanes": null, "service": null }, "geometry": { "type": "LineString", "coordinates": [ [ 151.759385400000014, -32.9378074 ], [ 151.7593156, -32.9377587 ] ] } },
{ "type": "Feature", "properties": { "osmid": "895780476", "name": null, "highway": "footway", "maxspeed": null, "oneway": false, "reversed": "False", "length": 11.226, "lanes": null, "service": null }, "geometry": { "type": "LineString", "coordinates": [ [ 151.759385400000014, -32.9378074 ], [ 151.7595045, -32.9377932 ] ] } },
{ "type": "Feature", "properties": { "osmid": "895780476", "name": null, "highway": "footway", "maxspeed": null, "oneway": false, "reversed": "True", "length": 12.269, "lanes": null, "service": null }, "geometry": { "type": "LineString", "coordinates": [ [ 151.759385400000014, -32.9378074 ], [ 151.7592549, -32.9378208 ] ] } },
{ "type": "Feature", "properties": { "osmid": "895780479", "name": null, "highway": "footway", "maxspeed": null, "oneway": false, "reversed": "False", "length": 11.63, "lanes": null, "service": null }, "geometry": { "type": "LineString", "coordinates": [ [ 151.759385400000014, -32.9378074 ], [ 151.7593975, -32.9379115 ] ] } },
{ "type": "Feature", "properties": { "osmid": "895780479", "name": null, "highway": "footway", "maxspeed": null, "oneway": false, "reversed": "True", "length": 11.812, "lanes": null, "service": null }, "geometry": { "type": "LineString", "coordinates": [ [ 151.759385400000014, -32.9378074 ], [ 151.75936870000001, -32.9377021 ] ] } },
{ "type": "Feature", "properties": { "osmid": "10954527", "name": "Corlette Street", "highway": "residential", "maxspeed": "40", "oneway": false, "reversed": "False", "length": 9.81, "lanes": null, "service": null }, "geometry": { "type": "LineString", "coordinates": [ [ 151.7603758, -32.9384745 ], [ 151.7604407, -32.9384051 ] ] } },
{ "type": "Feature", "properties": { "osmid": "675793034", "name": "Kenrick Street", "highway": "residential", "maxspeed": "40", "oneway": false, "reversed": "True", "length": 5.971, "lanes": null, "service": null }, "geometry": { "type": "LineString", "coordinates": [ [ 151.7603758, -32.9384745 ], [ 151.760325599999987, -32.9384412 ] ] } },
{ "type": "Feature", "properties": { "osmid": [ 675793034, 894429258 ], "name": "Kenrick Street", "highway": "residential", "maxspeed": "40", "oneway": false, "reversed": "False", "length": 33.474, "lanes": null, "service": null }, "geometry": { "type": "LineString", "coordinates": [ [ 151.7603758, -32.9384745 ], [ 151.7604902, -32.9385559 ], [ 151.7606226, -32.9386501 ], [ 151.7606226, -32.9386796 ] ] } },
{ "type": "Feature", "properties": { "osmid": "18069600", "name": "Kemp Street", "highway": "residential", "maxspeed": "50", "oneway": false, "reversed": "False", "length": 8.518, "lanes": null, "service": null }, "geometry": { "type": "LineString", "coordinates": [ [ 151.7618483, -32.9368937 ], [ 151.7618047, -32.9368635 ], [ 151.7617792, -32.9368437 ] ] } },
{ "type": "Feature", "properties": { "osmid": "18069600", "name": "Kemp Street", "highway": "residential", "maxspeed": "50", "oneway": false, "reversed": "True", "length": 26.647, "lanes": null, "service": null }, "geometry": { "type": "LineString", "coordinates": [ [ 151.7618483, -32.9368937 ], [ 151.7618966, -32.9369271 ], [ 151.7620761, -32.9370381 ] ] } },
{ "type": "Feature", "properties": { "osmid": "675793038", "name": "Corlette Street", "highway": "residential", "maxspeed": "50", "oneway": false, "reversed": "True", "length": 42.602, "lanes": null, "service": null }, "geometry": { "type": "LineString", "coordinates": [ [ 151.7618483, -32.9368937 ], [ 151.7618061, -32.93694 ], [ 151.76157, -32.9371974 ] ] } },
{ "type": "Feature", "properties": { "osmid": "398832527", "name": "Ravenshaw Street", "highway": "residential", "maxspeed": "50", "oneway": false, "reversed": "False", "length": 8.858, "lanes": null, "service": null }, "geometry": { "type": "LineString", "coordinates": [ [ 151.7573358, -32.9364628 ], [ 151.7572774, -32.9365256 ] ] } },
{ "type": "Feature", "properties": { "osmid": "200884468", "name": "Kenrick Street", "highway": "residential", "maxspeed": "50", "oneway": false, "reversed": "False", "length": 113.602, "lanes": null, "service": null }, "geometry": { "type": "LineString", "coordinates": [ [ 151.7573358, -32.9364628 ], [ 151.7573883, -32.9364972 ], [ 151.7582955, -32.9370913 ] ] } },
{ "type": "Feature", "properties": { "osmid": [ 18299037, 398832526 ], "name": "Ravenshaw Street", "highway": "residential", "maxspeed": "50", "oneway": false, "reversed": "True", "length": 101.453, "lanes": null, "service": null }, "geometry": { "type": "LineString", "coordinates": [ [ 151.7573358, -32.9364628 ], [ 151.7576755, -32.9361087 ], [ 151.7580069, -32.9357451 ] ] } },
{ "type": "Feature", "properties": { "osmid": "18298327", "name": "Farquhar Street", "highway": "residential", "maxspeed": "40", "oneway": false, "reversed": "False", "length": 3.53, "lanes": null, "service": null }, "geometry": { "type": "LineString", "coordinates": [ [ 151.75836240000001, -32.9371351 ], [ 151.758339400000011, -32.9371603 ] ] } },
{ "type": "Feature", "properties": { "osmid": "675793039", "name": "Farquhar Street", "highway": "residential", "maxspeed": "40", "oneway": false, "reversed": "False", "length": 3.309, "lanes": null, "service": null }, "geometry": { "type": "LineString", "coordinates": [ [ 151.75836240000001, -32.9371351 ], [ 151.758384, -32.9371115 ] ] } },
{ "type": "Feature", "properties": { "osmid": "200884468", "name": "Kenrick Street", "highway": "residential", "maxspeed": "50", "oneway": false, "reversed": "True", "length": 7.918, "lanes": null, "service": null }, "geometry": { "type": "LineString", "coordinates": [ [ 151.75836240000001, -32.9371351 ], [ 151.758309700000012, -32.9371006 ], [ 151.7582955, -32.9370913 ] ] } },
{ "type": "Feature", "properties": { "osmid": "895780489", "name": "Farquhar Street", "highway": "residential", "maxspeed": "40", "oneway": false, "reversed": "True", "length": 9.773, "lanes": "1", "service": null }, "geometry": { "type": "LineString", "coordinates": [ [ 151.75714880000001, -32.9386638 ], [ 151.7571204, -32.9385792 ] ] } },
{ "type": "Feature", "properties": { "osmid": "895780491", "name": "Glebe Road", "highway": "secondary", "maxspeed": "60", "oneway": false, "reversed": "True", "length": 22.191, "lanes": null, "service": null }, "geometry": { "type": "LineString", "coordinates": [ [ 151.75714880000001, -32.9386638 ], [ 151.7569112, -32.9386558 ] ] } },
{ "type": "Feature", "properties": { "osmid": "398832521", "name": "Glebe Road", "highway": "secondary", "maxspeed": "50", "oneway": false, "reversed": "False", "length": 117.806, "lanes": null, "service": null }, "geometry": { "type": "LineString", "coordinates": [ [ 151.75714880000001, -32.9386638 ], [ 151.7583808, -32.9387122 ], [ 151.75840980000001, -32.9387133 ] ] } },
{ "type": "Feature", "properties": { "osmid": [ 18299037, 398832526 ], "name": "Ravenshaw Street", "highway": "residential", "maxspeed": "50", "oneway": false, "reversed": "False", "length": 101.453, "lanes": null, "service": null }, "geometry": { "type": "LineString", "coordinates": [ [ 151.7580069, -32.9357451 ], [ 151.7576755, -32.9361087 ], [ 151.7573358, -32.9364628 ] ] } },
{ "type": "Feature", "properties": { "osmid": "398832531", "name": "Turnbull Street", "highway": "residential", "maxspeed": "50", "oneway": false, "reversed": "True", "length": 73.291, "lanes": null, "service": null }, "geometry": { "type": "LineString", "coordinates": [ [ 151.7558694, -32.938039 ], [ 151.7564956, -32.9384368 ] ] } },
{ "type": "Feature", "properties": { "osmid": [ 398832528, 398832527 ], "name": "Ravenshaw Street", "highway": "residential", "maxspeed": "50", "oneway": false, "reversed": "True", "length": 213.505, "lanes": null, "service": null }, "geometry": { "type": "LineString", "coordinates": [ [ 151.7558694, -32.938039 ], [ 151.7562696, -32.9376088 ], [ 151.7572774, -32.9365256 ] ] } },
{ "type": "Feature", "properties": { "osmid": [ 398832529, 398832530 ], "name": "Ravenshaw Street", "highway": "residential", "maxspeed": "50", "oneway": false, "reversed": "False", "length": 74.412, "lanes": null, "service": null }, "geometry": { "type": "LineString", "coordinates": [ [ 151.7558694, -32.938039 ], [ 151.7555309, -32.9383909 ], [ 151.7554561, -32.9384998 ], [ 151.75542870000001, -32.9385881 ] ] } },
{ "type": "Feature", "properties": { "osmid": "380519861", "name": "Glebe Road", "highway": "secondary", "maxspeed": "60", "oneway": false, "reversed": "False", "length": 138.587, "lanes": null, "service": null }, "geometry": { "type": "LineString", "coordinates": [ [ 151.75542870000001, -32.9385881 ], [ 151.7568169, -32.9386447 ], [ 151.7569112, -32.9386558 ] ] } },
{ "type": "Feature", "properties": { "osmid": [ 398832529, 398832530 ], "name": "Ravenshaw Street", "highway": "residential", "maxspeed": "50", "oneway": false, "reversed": "True", "length": 74.412, "lanes": null, "service": null }, "geometry": { "type": "LineString", "coordinates": [ [ 151.75542870000001, -32.9385881 ], [ 151.7554561, -32.9384998 ], [ 151.7555309, -32.9383909 ], [ 151.7558694, -32.938039 ] ] } },
{ "type": "Feature", "properties": { "osmid": "61897144", "name": "Brien Street", "highway": "residential", "maxspeed": "40", "oneway": false, "reversed": "False", "length": 8.309, "lanes": null, "service": null }, "geometry": { "type": "LineString", "coordinates": [ [ 151.7604033, -32.9366886 ], [ 151.7603337, -32.936642 ] ] } },
{ "type": "Feature", "properties": { "osmid": "675793033", "name": "Union Street", "highway": "secondary", "maxspeed": "40", "oneway": false, "reversed": "False", "length": 147.98, "lanes": null, "service": null }, "geometry": { "type": "LineString", "coordinates": [ [ 151.7604033, -32.9366886 ], [ 151.7594574, -32.9377256 ], [ 151.7594397, -32.9377455 ] ] } },
{ "type": "Feature", "properties": { "osmid": [ 675793033, 895482061 ], "name": "Union Street", "highway": "secondary", "maxspeed": [ "40", "60" ], "oneway": false, "reversed": "True", "length": 65.547, "lanes": null, "service": null }, "geometry": { "type": "LineString", "coordinates": [ [ 151.7604033, -32.9366886 ], [ 151.7607318, -32.9363275 ], [ 151.7608291, -32.9362198 ] ] } },
{ "type": "Feature", "properties": { "osmid": "61897144", "name": "Brien Street", "highway": "residential", "maxspeed": "40", "oneway": false, "reversed": "True", "length": 7.901, "lanes": null, "service": null }, "geometry": { "type": "LineString", "coordinates": [ [ 151.7593917, -32.9360118 ], [ 151.7594579, -32.9360561 ] ] } },
{ "type": "Feature", "properties": { "osmid": "675793039", "name": "Farquhar Street", "highway": "residential", "maxspeed": "40", "oneway": false, "reversed": "True", "length": 148.494, "lanes": null, "service": null }, "geometry": { "type": "LineString", "coordinates": [ [ 151.7593917, -32.9360118 ], [ 151.7584732, -32.9370142 ], [ 151.758421700000014, -32.9370704 ] ] } },
{ "type": "Feature", "properties": { "osmid": "201866809", "name": "Bar Beach Avenue", "highway": "residential", "maxspeed": "50", "oneway": false, "reversed": "False", "length": 257.783, "lanes": null, "service": null }, "geometry": { "type": "LineString", "coordinates": [ [ 151.7636704, -32.9399187 ], [ 151.763335899999987, -32.939871 ], [ 151.761827, -32.9396554 ], [ 151.7609472, -32.9395297 ] ] } },
{ "type": "Feature", "properties": { "osmid": [ 951663035, 907592044 ], "name": null, "highway": "footway", "maxspeed": null, "oneway": false, "reversed": [ false, true ], "length": 9.73, "lanes": null, "service": null }, "geometry": { "type": "LineString", "coordinates": [ [ 151.7636704, -32.9399187 ], [ 151.7636833, -32.9398529 ], [ 151.7636876, -32.9398324 ] ] } },
{ "type": "Feature", "properties": { "osmid": [ 951663036, 907592044 ], "name": null, "highway": "footway", "maxspeed": null, "oneway": false, "reversed": "True", "length": 8.243, "lanes": null, "service": null }, "geometry": { "type": "LineString", "coordinates": [ [ 151.7636704, -32.9399187 ], [ 151.7636603, -32.939979 ], [ 151.763659100000012, -32.9399922 ] ] } },
{ "type": "Feature", "properties": { "osmid": "895081612", "name": "Bar Beach Avenue", "highway": "residential", "maxspeed": "50", "oneway": false, "reversed": "True", "length": 10.962, "lanes": null, "service": null }, "geometry": { "type": "LineString", "coordinates": [ [ 151.7600888, -32.939366 ], [ 151.7601837, -32.9394241 ] ] } },
{ "type": "Feature", "properties": { "osmid": "901664334", "name": "Watkins Street", "highway": "tertiary", "maxspeed": "50", "oneway": false, "reversed": "True", "length": 9.133, "lanes": null, "service": null }, "geometry": { "type": "LineString", "coordinates": [ [ 151.7600888, -32.939366 ], [ 151.760154199999988, -32.9393049 ] ] } },
{ "type": "Feature", "properties": { "osmid": [ 18069096, 990204268 ], "name": "Watkins Street", "highway": "tertiary", "maxspeed": "50", "oneway": false, "reversed": "False", "length": 57.943, "lanes": null, "service": null }, "geometry": { "type": "LineString", "coordinates": [ [ 151.7600888, -32.939366 ], [ 151.7599817, -32.9394702 ], [ 151.7599574, -32.9394938 ], [ 151.7598945, -32.939555 ], [ 151.7598592, -32.9395928 ], [ 151.7596926, -32.9397671 ] ] } },
{ "type": "Feature", "properties": { "osmid": "410723486", "name": null, "highway": "footway", "maxspeed": null, "oneway": false, "reversed": "True", "length": 1.576, "lanes": null, "service": null }, "geometry": { "type": "LineString", "coordinates": [ [ 151.7583529, -32.9387843 ], [ 151.7583445, -32.9387966 ] ] } },
{ "type": "Feature", "properties": { "osmid": "398832531", "name": "Turnbull Street", "highway": "residential", "maxspeed": "50", "oneway": false, "reversed": "False", "length": 73.291, "lanes": null, "service": null }, "geometry": { "type": "LineString", "coordinates": [ [ 151.7564956, -32.9384368 ], [ 151.7558694, -32.938039 ] ] } },
{ "type": "Feature", "properties": { "osmid": "574778938", "name": "Chester Lane", "highway": "residential", "maxspeed": null, "oneway": false, "reversed": "True", "length": 92.447, "lanes": "2", "service": null }, "geometry": { "type": "LineString", "coordinates": [ [ 151.7601364, -32.9402592 ], [ 151.7601981, -32.9399824 ], [ 151.7602115, -32.9399148 ], [ 151.760210199999989, -32.9398962 ], [ 151.7601961, -32.9398794 ], [ 151.7601733, -32.9398698 ], [ 151.7601344, -32.9398642 ], [ 151.7599949, -32.939845 ], [ 151.7598662, -32.939827 ], [ 151.759769299999988, -32.9398068 ], [ 151.759721399999989, -32.939782 ], [ 151.7596926, -32.9397671 ] ] } },
{ "type": "Feature", "properties": { "osmid": [ 18069096, 990204268 ], "name": "Watkins Street", "highway": "tertiary", "maxspeed": "50", "oneway": false, "reversed": "True", "length": 57.943, "lanes": null, "service": null }, "geometry": { "type": "LineString", "coordinates": [ [ 151.7596926, -32.9397671 ], [ 151.7598592, -32.9395928 ], [ 151.7598945, -32.939555 ], [ 151.7599574, -32.9394938 ], [ 151.7599817, -32.9394702 ], [ 151.7600888, -32.939366 ] ] } },
{ "type": "Feature", "properties": { "osmid": "574778938", "name": "Chester Lane", "highway": "residential", "maxspeed": null, "oneway": false, "reversed": "False", "length": 92.447, "lanes": "2", "service": null }, "geometry": { "type": "LineString", "coordinates": [ [ 151.7596926, -32.9397671 ], [ 151.759721399999989, -32.939782 ], [ 151.759769299999988, -32.9398068 ], [ 151.7598662, -32.939827 ], [ 151.7599949, -32.939845 ], [ 151.7601344, -32.9398642 ], [ 151.7601733, -32.9398698 ], [ 151.7601961, -32.9398794 ], [ 151.760210199999989, -32.9398962 ], [ 151.7602115, -32.9399148 ], [ 151.7601981, -32.9399824 ], [ 151.7601364, -32.9402592 ] ] } },
{ "type": "Feature", "properties": { "osmid": "347014132", "name": "Glebe Road", "highway": "secondary", "maxspeed": "50", "oneway": false, "reversed": "True", "length": 136.174, "lanes": null, "service": null }, "geometry": { "type": "LineString", "coordinates": [ [ 151.763614100000012, -32.9388142 ], [ 151.762155400000012, -32.9387821 ] ] } },
{ "type": "Feature", "properties": { "osmid": "832487293", "name": null, "highway": "footway", "maxspeed": null, "oneway": false, "reversed": "True", "length": 8.108, "lanes": null, "service": null }, "geometry": { "type": "LineString", "coordinates": [ [ 151.763614100000012, -32.9388142 ], [ 151.763616, -32.9387413 ] ] } },
{ "type": "Feature", "properties": { "osmid": [ 894429264, 347014132 ], "name": "Glebe Road", "highway": "secondary", "maxspeed": "50", "oneway": false, "reversed": "False", "length": 78.42, "lanes": null, "service": null }, "geometry": { "type": "LineString", "coordinates": [ [ 151.763614100000012, -32.9388142 ], [ 151.7636372, -32.9388147 ], [ 151.7641363, -32.9388236 ], [ 151.764454199999989, -32.9388308 ] ] } },
{ "type": "Feature", "properties": { "osmid": [ 907592044, 951663036 ], "name": null, "highway": "footway", "maxspeed": null, "oneway": false, "reversed": "False", "length": 8.243, "lanes": null, "service": null }, "geometry": { "type": "LineString", "coordinates": [ [ 151.763659100000012, -32.9399922 ], [ 151.7636603, -32.939979 ], [ 151.7636704, -32.9399187 ] ] } },
{ "type": "Feature", "properties": { "osmid": "895081607", "name": null, "highway": "footway", "maxspeed": null, "oneway": false, "reversed": "False", "length": 322.455, "lanes": null, "service": null }, "geometry": { "type": "LineString", "coordinates": [ [ 151.7636876, -32.9398324 ], [ 151.7603973, -32.9393807 ], [ 151.76035060000001, -32.9392867 ] ] } },
{ "type": "Feature", "properties": { "osmid": [ 951663035, 907592044 ], "name": null, "highway": "footway", "maxspeed": null, "oneway": false, "reversed": [ false, true ], "length": 9.73, "lanes": null, "service": null }, "geometry": { "type": "LineString", "coordinates": [ [ 151.7636876, -32.9398324 ], [ 151.7636833, -32.9398529 ], [ 151.7636704, -32.9399187 ] ] } },
{ "type": "Feature", "properties": { "osmid": "894429233", "name": null, "highway": "footway", "maxspeed": null, "oneway": false, "reversed": "True", "length": 9.671, "lanes": null, "service": null }, "geometry": { "type": "LineString", "coordinates": [ [ 151.7607514, -32.938836 ], [ 151.760855, -32.9388381 ] ] } },
{ "type": "Feature", "properties": { "osmid": "894429246", "name": null, "highway": "footway", "maxspeed": null, "oneway": false, "reversed": "False", "length": 1.091, "lanes": null, "service": null }, "geometry": { "type": "LineString", "coordinates": [ [ 151.7607514, -32.938836 ], [ 151.760741200000012, -32.9388408 ] ] } },
{ "type": "Feature", "properties": { "osmid": "894429243", "name": null, "highway": "footway", "maxspeed": null, "oneway": false, "reversed": "False", "length": 8.969, "lanes": null, "service": null }, "geometry": { "type": "LineString", "coordinates": [ [ 151.7607514, -32.938836 ], [ 151.760752200000013, -32.9388178 ], [ 151.7607552, -32.9387554 ] ] } },
{ "type": "Feature", "properties": { "osmid": "894429260", "name": null, "highway": "footway", "maxspeed": null, "oneway": false, "reversed": "False", "length": 121.672, "lanes": null, "service": null }, "geometry": { "type": "LineString", "coordinates": [ [ 151.760758399999986, -32.9386875 ], [ 151.7620619, -32.9387113 ] ] } },
{ "type": "Feature", "properties": { "osmid": "894429243", "name": null, "highway": "footway", "maxspeed": null, "oneway": false, "reversed": "True", "length": 7.556, "lanes": null, "service": null }, "geometry": { "type": "LineString", "coordinates": [ [ 151.760758399999986, -32.9386875 ], [ 151.7607576, -32.9387042 ], [ 151.7607552, -32.9387554 ] ] } },
{ "type": "Feature", "properties": { "osmid": [ 894429250, 894429244 ], "name": null, "highway": "footway", "maxspeed": null, "oneway": false, "reversed": "True", "length": 12.724, "lanes": null, "service": null }, "geometry": { "type": "LineString", "coordinates": [ [ 151.760758399999986, -32.9386875 ], [ 151.7607181, -32.9386821 ], [ 151.7607064, -32.9386818 ], [ 151.7606226, -32.9386796 ] ] } },
{ "type": "Feature", "properties": { "osmid": "894429259", "name": null, "highway": "footway", "maxspeed": null, "oneway": false, "reversed": "True", "length": 31.905, "lanes": null, "service": null }, "geometry": { "type": "LineString", "coordinates": [ [ 151.760758399999986, -32.9386875 ], [ 151.7606977, -32.9386067 ], [ 151.760517099999987, -32.9384898 ] ] } },
{ "type": "Feature", "properties": { "osmid": "894429261", "name": "Glebe Road", "highway": "secondary", "maxspeed": "50", "oneway": false, "reversed": "False", "length": 130.701, "lanes": null, "service": null }, "geometry": { "type": "LineString", "coordinates": [ [ 151.7607552, -32.9387554 ], [ 151.762155400000012, -32.9387821 ] ] } },
{ "type": "Feature", "properties": { "osmid": "894429261", "name": "Glebe Road", "highway": "secondary", "maxspeed": "50", "oneway": false, "reversed": "True", "length": 12.275, "lanes": null, "service": null }, "geometry": { "type": "LineString", "coordinates": [ [ 151.7607552, -32.9387554 ], [ 151.7606237, -32.9387529 ] ] } },
{ "type": "Feature", "properties": { "osmid": "894429243", "name": null, "highway": "footway", "maxspeed": null, "oneway": false, "reversed": "False", "length": 7.556, "lanes": null, "service": null }, "geometry": { "type": "LineString", "coordinates": [ [ 151.7607552, -32.9387554 ], [ 151.7607576, -32.9387042 ], [ 151.760758399999986, -32.9386875 ] ] } },
{ "type": "Feature", "properties": { "osmid": "894429243", "name": null, "highway": "footway", "maxspeed": null, "oneway": false, "reversed": "True", "length": 8.969, "lanes": null, "service": null }, "geometry": { "type": "LineString", "coordinates": [ [ 151.7607552, -32.9387554 ], [ 151.760752200000013, -32.9388178 ], [ 151.7607514, -32.938836 ] ] } },
{ "type": "Feature", "properties": { "osmid": "894429247", "name": null, "highway": "footway", "maxspeed": null, "oneway": false, "reversed": "True", "length": 1.481, "lanes": null, "service": null }, "geometry": { "type": "LineString", "coordinates": [ [ 151.7604613, -32.9388301 ], [ 151.7604761, -32.9388349 ] ] } },
{ "type": "Feature", "properties": { "osmid": [ 894429248, 894429247 ], "name": null, "highway": "footway", "maxspeed": null, "oneway": false, "reversed": "False", "length": 8.786, "lanes": null, "service": null }, "geometry": { "type": "LineString", "coordinates": [ [ 151.7604613, -32.9388301 ], [ 151.7604615, -32.9388174 ], [ 151.760463, -32.9387511 ] ] } },
{ "type": "Feature", "properties": { "osmid": "1213781649", "name": "Glebe Road", "highway": "footway", "maxspeed": null, "oneway": false, "reversed": "True", "length": 172.334, "lanes": null, "service": null }, "geometry": { "type": "LineString", "coordinates": [ [ 151.7604613, -32.9388301 ], [ 151.760425, -32.9388207 ], [ 151.7601872, -32.9388157 ], [ 151.7597556, -32.9388089 ], [ 151.759353800000014, -32.9387998 ], [ 151.7589745, -32.9387945 ], [ 151.7586169, -32.9387832 ] ] } },
{ "type": "Feature", "properties": { "osmid": [ 894429249, 894429244 ], "name": null, "highway": "footway", "maxspeed": null, "oneway": false, "reversed": "False", "length": 14.726, "lanes": null, "service": null }, "geometry": { "type": "LineString", "coordinates": [ [ 151.7604653, -32.9386807 ], [ 151.760498, -32.9386762 ], [ 151.7606226, -32.9386796 ] ] } },
{ "type": "Feature", "properties": { "osmid": [ 894429248, 894429249 ], "name": null, "highway": "footway", "maxspeed": null, "oneway": false, "reversed": "True", "length": 7.833, "lanes": null, "service": null }, "geometry": { "type": "LineString", "coordinates": [ [ 151.7604653, -32.9386807 ], [ 151.7604643, -32.9386939 ], [ 151.760463, -32.9387511 ] ] } },
{ "type": "Feature", "properties": { "osmid": "894429252", "name": null, "highway": "footway", "maxspeed": null, "oneway": false, "reversed": "False", "length": 28.141, "lanes": null, "service": null }, "geometry": { "type": "LineString", "coordinates": [ [ 151.7604653, -32.9386807 ], [ 151.7604379, -32.9386866 ], [ 151.7601647, -32.9386817 ] ] } },
{ "type": "Feature", "properties": { "osmid": "894429252", "name": null, "highway": "footway", "maxspeed": null, "oneway": false, "reversed": "True", "length": 25.266, "lanes": null, "service": null }, "geometry": { "type": "LineString", "coordinates": [ [ 151.7604653, -32.9386807 ], [ 151.760477, -32.9386567 ], [ 151.7604624, -32.9386194 ], [ 151.760306, -32.9385244 ] ] } },
{ "type": "Feature", "properties": { "osmid": "990204266", "name": "Watkins Street", "highway": "tertiary", "maxspeed": "50", "oneway": false, "reversed": "True", "length": 9.864, "lanes": "2", "service": null }, "geometry": { "type": "LineString", "coordinates": [ [ 151.760624799999988, -32.9388416 ], [ 151.7606237, -32.9387529 ] ] } },
{ "type": "Feature", "properties": { "osmid": [ 611263064, 894429251 ], "name": "Watkins Street", "highway": "tertiary", "maxspeed": "50", "oneway": false, "reversed": "False", "length": 68.462, "lanes": null, "service": null }, "geometry": { "type": "LineString", "coordinates": [ [ 151.760624799999988, -32.9388416 ], [ 151.7606252, -32.9388572 ], [ 151.7605542, -32.9389584 ], [ 151.760536800000011, -32.9389739 ], [ 151.7604165, -32.9390743 ], [ 151.7603393, -32.9391386 ], [ 151.7601938, -32.9392648 ], [ 151.760154199999988, -32.9393049 ] ] } },
{ "type": "Feature", "properties": { "osmid": [ 894429245, 894429247 ], "name": null, "highway": "footway", "maxspeed": null, "oneway": false, "reversed": "False", "length": 13.962, "lanes": null, "service": null }, "geometry": { "type": "LineString", "coordinates": [ [ 151.760624799999988, -32.9388416 ], [ 151.760502699999989, -32.9388392 ], [ 151.7604887, -32.9388389 ], [ 151.7604761, -32.9388349 ] ] } },
{ "type": "Feature", "properties": { "osmid": [ 894429245, 894429246 ], "name": null, "highway": "footway", "maxspeed": null, "oneway": false, "reversed": "True", "length": 10.955, "lanes": null, "service": null }, "geometry": { "type": "LineString", "coordinates": [ [ 151.760624799999988, -32.9388416 ], [ 151.7607228, -32.9388436 ], [ 151.760735, -32.9388438 ], [ 151.760741200000012, -32.9388408 ] ] } },
{ "type": "Feature", "properties": { "osmid": "347014133", "name": "Glebe Road", "highway": "secondary", "maxspeed": "50", "oneway": false, "reversed": "False", "length": 14.998, "lanes": null, "service": null }, "geometry": { "type": "LineString", "coordinates": [ [ 151.760463, -32.9387511 ], [ 151.7606237, -32.9387529 ] ] } },
{ "type": "Feature", "properties": { "osmid": "347014133", "name": "Glebe Road", "highway": "secondary", "maxspeed": "50", "oneway": false, "reversed": "True", "length": 166.85, "lanes": null, "service": null }, "geometry": { "type": "LineString", "coordinates": [ [ 151.760463, -32.9387511 ], [ 151.7604455, -32.9387509 ], [ 151.7587215, -32.9387196 ], [ 151.75867550000001, -32.9387188 ] ] } },
{ "type": "Feature", "properties": { "osmid": [ 894429248, 894429249 ], "name": null, "highway": "footway", "maxspeed": null, "oneway": false, "reversed": "False", "length": 7.833, "lanes": null, "service": null }, "geometry": { "type": "LineString", "coordinates": [ [ 151.760463, -32.9387511 ], [ 151.7604643, -32.9386939 ], [ 151.7604653, -32.9386807 ] ] } },
{ "type": "Feature", "properties": { "osmid": [ 894429248, 894429247 ], "name": null, "highway": "footway", "maxspeed": null, "oneway": false, "reversed": "True", "length": 8.786, "lanes": null, "service": null }, "geometry": { "type": "LineString", "coordinates": [ [ 151.760463, -32.9387511 ], [ 151.7604615, -32.9388174 ], [ 151.7604613, -32.9388301 ] ] } },
{ "type": "Feature", "properties": { "osmid": "894429258", "name": "Kenrick Street", "highway": "residential", "maxspeed": "40", "oneway": false, "reversed": "False", "length": 8.151, "lanes": null, "service": null }, "geometry": { "type": "LineString", "coordinates": [ [ 151.7606226, -32.9386796 ], [ 151.7606237, -32.9387529 ] ] } },
{ "type": "Feature", "properties": { "osmid": [ 894429250, 894429244 ], "name": null, "highway": "footway", "maxspeed": null, "oneway": false, "reversed": "False", "length": 12.724, "lanes": null, "service": null }, "geometry": { "type": "LineString", "coordinates": [ [ 151.7606226, -32.9386796 ], [ 151.7607064, -32.9386818 ], [ 151.7607181, -32.9386821 ], [ 151.760758399999986, -32.9386875 ] ] } },
{ "type": "Feature", "properties": { "osmid": [ 894429249, 894429244 ], "name": null, "highway": "footway", "maxspeed": null, "oneway": false, "reversed": "True", "length": 14.726, "lanes": null, "service": null }, "geometry": { "type": "LineString", "coordinates": [ [ 151.7606226, -32.9386796 ], [ 151.760498, -32.9386762 ], [ 151.7604653, -32.9386807 ] ] } },
{ "type": "Feature", "properties": { "osmid": [ 894429258, 675793034 ], "name": "Kenrick Street", "highway": "residential", "maxspeed": "40", "oneway": false, "reversed": "True", "length": 33.474, "lanes": null, "service": null }, "geometry": { "type": "LineString", "coordinates": [ [ 151.7606226, -32.9386796 ], [ 151.7606226, -32.9386501 ], [ 151.7604902, -32.9385559 ], [ 151.7603758, -32.9384745 ] ] } },
{ "type": "Feature", "properties": { "osmid": "894429252", "name": null, "highway": "footway", "maxspeed": null, "oneway": false, "reversed": "False", "length": 21.905, "lanes": null, "service": null }, "geometry": { "type": "LineString", "coordinates": [ [ 151.7601647, -32.9386817 ], [ 151.760306, -32.9385244 ] ] } },
{ "type": "Feature", "properties": { "osmid": "894429252", "name": null, "highway": "footway", "maxspeed": null, "oneway": false, "reversed": "True", "length": 28.141, "lanes": null, "service": null }, "geometry": { "type": "LineString", "coordinates": [ [ 151.7601647, -32.9386817 ], [ 151.7604379, -32.9386866 ], [ 151.7604653, -32.9386807 ] ] } },
{ "type": "Feature", "properties": { "osmid": "895780474", "name": null, "highway": "footway", "maxspeed": null, "oneway": false, "reversed": "True", "length": 132.464, "lanes": null, "service": null }, "geometry": { "type": "LineString", "coordinates": [ [ 151.7601647, -32.9386817 ], [ 151.7587633, -32.938645 ], [ 151.7587562, -32.9386317 ] ] } },
{ "type": "Feature", "properties": { "osmid": "894429252", "name": null, "highway": "footway", "maxspeed": null, "oneway": false, "reversed": "True", "length": 21.905, "lanes": null, "service": null }, "geometry": { "type": "LineString", "coordinates": [ [ 151.760306, -32.9385244 ], [ 151.7601647, -32.9386817 ] ] } },
{ "type": "Feature", "properties": { "osmid": "894429254", "name": null, "highway": "footway", "maxspeed": null, "oneway": false, "reversed": "False", "length": 4.384, "lanes": null, "service": null }, "geometry": { "type": "LineString", "coordinates": [ [ 151.760306, -32.9385244 ], [ 151.76026920000001, -32.9384999 ] ] } },
{ "type": "Feature", "properties": { "osmid": "894429252", "name": null, "highway": "footway", "maxspeed": null, "oneway": false, "reversed": "False", "length": 25.266, "lanes": null, "service": null }, "geometry": { "type": "LineString", "coordinates": [ [ 151.760306, -32.9385244 ], [ 151.7604624, -32.9386194 ], [ 151.760477, -32.9386567 ], [ 151.7604653, -32.9386807 ] ] } },
{ "type": "Feature", "properties": { "osmid": "894429254", "name": null, "highway": "footway", "maxspeed": null, "oneway": false, "reversed": "True", "length": 4.384, "lanes": null, "service": null }, "geometry": { "type": "LineString", "coordinates": [ [ 151.76026920000001, -32.9384999 ], [ 151.760306, -32.9385244 ] ] } },
{ "type": "Feature", "properties": { "osmid": "895780473", "name": null, "highway": "footway", "maxspeed": null, "oneway": false, "reversed": "True", "length": 104.395, "lanes": null, "service": null }, "geometry": { "type": "LineString", "coordinates": [ [ 151.76026920000001, -32.9384999 ], [ 151.7593975, -32.9379115 ] ] } },
{ "type": "Feature", "properties": { "osmid": [ 894429254, 894429255 ], "name": null, "highway": "footway", "maxspeed": null, "oneway": false, "reversed": "False", "length": 8.385, "lanes": null, "service": null }, "geometry": { "type": "LineString", "coordinates": [ [ 151.76026920000001, -32.9384999 ], [ 151.7602942, -32.9384739 ], [ 151.760325599999987, -32.9384412 ] ] } },
{ "type": "Feature", "properties": { "osmid": "895780452", "name": null, "highway": "footway", "maxspeed": null, "oneway": false, "reversed": "True", "length": 204.752, "lanes": null, "service": null }, "geometry": { "type": "LineString", "coordinates": [ [ 151.7603889, -32.9383755 ], [ 151.761719199999987, -32.9369112 ] ] } },
{ "type": "Feature", "properties": { "osmid": "895780453", "name": null, "highway": "footway", "maxspeed": null, "oneway": false, "reversed": "False", "length": 41.382, "lanes": null, "service": null }, "geometry": { "type": "LineString", "coordinates": [ [ 151.7603889, -32.9383755 ], [ 151.76004, -32.9381458 ] ] } },
{ "type": "Feature", "properties": { "osmid": [ 894429257, 894429253 ], "name": null, "highway": "footway", "maxspeed": null, "oneway": false, "reversed": "False", "length": 5.848, "lanes": null, "service": null }, "geometry": { "type": "LineString", "coordinates": [ [ 151.7603889, -32.9383755 ], [ 151.760425, -32.9383962 ], [ 151.7604407, -32.9384051 ] ] } },
{ "type": "Feature", "properties": { "osmid": [ 894429253, 894429255 ], "name": null, "highway": "footway", "maxspeed": null, "oneway": false, "reversed": "True", "length": 9.395, "lanes": null, "service": null }, "geometry": { "type": "LineString", "coordinates": [ [ 151.7603889, -32.9383755 ], [ 151.760353900000013, -32.9384118 ], [ 151.760325599999987, -32.9384412 ] ] } },
{ "type": "Feature", "properties": { "osmid": "894429259", "name": null, "highway": "footway", "maxspeed": null, "oneway": false, "reversed": "False", "length": 6.233, "lanes": null, "service": null }, "geometry": { "type": "LineString", "coordinates": [ [ 151.7604957, -32.9384367 ], [ 151.760517099999987, -32.9384898 ] ] } },
{ "type": "Feature", "properties": { "osmid": "895780458", "name": null, "highway": "footway", "maxspeed": null, "oneway": false, "reversed": "False", "length": 6.088, "lanes": null, "service": null }, "geometry": { "type": "LineString", "coordinates": [ [ 151.7604957, -32.9384367 ], [ 151.760560700000013, -32.9384414 ] ] } },
{ "type": "Feature", "properties": { "osmid": [ 894429256, 894429257 ], "name": null, "highway": "footway", "maxspeed": null, "oneway": false, "reversed": "True", "length": 6.22, "lanes": null, "service": null }, "geometry": { "type": "LineString", "coordinates": [ [ 151.7604957, -32.9384367 ], [ 151.7604835, -32.9384297 ], [ 151.7604407, -32.9384051 ] ] } },
{ "type": "Feature", "properties": { "osmid": "675793034", "name": "Kenrick Street", "highway": "residential", "maxspeed": "40", "oneway": false, "reversed": "False", "length": 5.971, "lanes": null, "service": null }, "geometry": { "type": "LineString", "coordinates": [ [ 151.760325599999987, -32.9384412 ], [ 151.7603758, -32.9384745 ] ] } },
{ "type": "Feature", "properties": { "osmid": "675793034", "name": "Kenrick Street", "highway": "residential", "maxspeed": "40", "oneway": false, "reversed": "True", "length": 41.07, "lanes": null, "service": null }, "geometry": { "type": "LineString", "coordinates": [ [ 151.760325599999987, -32.9384412 ], [ 151.759980399999989, -32.9382121 ] ] } },
{ "type": "Feature", "properties": { "osmid": [ 894429253, 894429255 ], "name": null, "highway": "footway", "maxspeed": null, "oneway": false, "reversed": "False", "length": 9.395, "lanes": null, "service": null }, "geometry": { "type": "LineString", "coordinates": [ [ 151.760325599999987, -32.9384412 ], [ 151.760353900000013, -32.9384118 ], [ 151.7603889, -32.9383755 ] ] } },
{ "type": "Feature", "properties": { "osmid": [ 894429254, 894429255 ], "name": null, "highway": "footway", "maxspeed": null, "oneway": false, "reversed": "True", "length": 8.385, "lanes": null, "service": null }, "geometry": { "type": "LineString", "coordinates": [ [ 151.760325599999987, -32.9384412 ], [ 151.7602942, -32.9384739 ], [ 151.76026920000001, -32.9384999 ] ] } },
{ "type": "Feature", "properties": { "osmid": "10954527", "name": "Corlette Street", "highway": "residential", "maxspeed": "40", "oneway": false, "reversed": "True", "length": 9.81, "lanes": null, "service": null }, "geometry": { "type": "LineString", "coordinates": [ [ 151.7604407, -32.9384051 ], [ 151.7603758, -32.9384745 ] ] } },
{ "type": "Feature", "properties": { "osmid": [ 675793038, 10954527 ], "name": "Corlette Street", "highway": "residential", "maxspeed": [ "40", "50" ], "oneway": false, "reversed": "False", "length": 170.706, "lanes": null, "service": null }, "geometry": { "type": "LineString", "coordinates": [ [ 151.7604407, -32.9384051 ], [ 151.760539200000011, -32.9382998 ], [ 151.76157, -32.9371974 ] ] } },
{ "type": "Feature", "properties": { "osmid": [ 894429256, 894429257 ], "name": null, "highway": "footway", "maxspeed": null, "oneway": false, "reversed": "False", "length": 6.22, "lanes": null, "service": null }, "geometry": { "type": "LineString", "coordinates": [ [ 151.7604407, -32.9384051 ], [ 151.7604835, -32.9384297 ], [ 151.7604957, -32.9384367 ] ] } },
{ "type": "Feature", "properties": { "osmid": [ 894429257, 894429253 ], "name": null, "highway": "footway", "maxspeed": null, "oneway": false, "reversed": "True", "length": 5.848, "lanes": null, "service": null }, "geometry": { "type": "LineString", "coordinates": [ [ 151.7604407, -32.9384051 ], [ 151.760425, -32.9383962 ], [ 151.7603889, -32.9383755 ] ] } },
{ "type": "Feature", "properties": { "osmid": "894429259", "name": null, "highway": "footway", "maxspeed": null, "oneway": false, "reversed": "True", "length": 6.233, "lanes": null, "service": null }, "geometry": { "type": "LineString", "coordinates": [ [ 151.760517099999987, -32.9384898 ], [ 151.7604957, -32.9384367 ] ] } },
{ "type": "Feature", "properties": { "osmid": "895780457", "name": null, "highway": "footway", "maxspeed": null, "oneway": false, "reversed": "True", "length": 6.747, "lanes": null, "service": null }, "geometry": { "type": "LineString", "coordinates": [ [ 151.760517099999987, -32.9384898 ], [ 151.760560700000013, -32.9384414 ] ] } },
{ "type": "Feature", "properties": { "osmid": "894429259", "name": null, "highway": "footway", "maxspeed": null, "oneway": false, "reversed": "False", "length": 31.905, "lanes": null, "service": null }, "geometry": { "type": "LineString", "coordinates": [ [ 151.760517099999987, -32.9384898 ], [ 151.7606977, -32.9386067 ], [ 151.760758399999986, -32.9386875 ] ] } },
{ "type": "Feature", "properties": { "osmid": "398832520", "name": "Glebe Road", "highway": "secondary", "maxspeed": "50", "oneway": false, "reversed": "True", "length": 18.176, "lanes": null, "service": null }, "geometry": { "type": "LineString", "coordinates": [ [ 151.764454199999989, -32.9388308 ], [ 151.7645616, -32.938855 ], [ 151.7646447, -32.9388624 ] ] } },
{ "type": "Feature", "properties": { "osmid": "894429263", "name": "Glebe Road", "highway": "secondary", "maxspeed": "50", "oneway": false, "reversed": "False", "length": 18.302, "lanes": null, "service": null }, "geometry": { "type": "LineString", "coordinates": [ [ 151.764454199999989, -32.9388308 ], [ 151.7645847, -32.9388158 ], [ 151.7646485, -32.9388084 ] ] } },
{ "type": "Feature", "properties": { "osmid": [ 894429264, 347014132 ], "name": "Glebe Road", "highway": "secondary", "maxspeed": "50", "oneway": false, "reversed": "True", "length": 78.42, "lanes": null, "service": null }, "geometry": { "type": "LineString", "coordinates": [ [ 151.764454199999989, -32.9388308 ], [ 151.7641363, -32.9388236 ], [ 151.7636372, -32.9388147 ], [ 151.763614100000012, -32.9388142 ] ] } },
{ "type": "Feature", "properties": { "osmid": "894429262", "name": null, "highway": "footway", "maxspeed": null, "oneway": false, "reversed": "False", "length": 5.428, "lanes": null, "service": null }, "geometry": { "type": "LineString", "coordinates": [ [ 151.7646432, -32.9389112 ], [ 151.7646447, -32.9388624 ] ] } },
{ "type": "Feature", "properties": { "osmid": "894429233", "name": null, "highway": "footway", "maxspeed": null, "oneway": false, "reversed": "False", "length": 353.611, "lanes": null, "service": null }, "geometry": { "type": "LineString", "coordinates": [ [ 151.7646432, -32.9389112 ], [ 151.7621427, -32.9388646 ], [ 151.760855, -32.9388381 ] ] } },
{ "type": "Feature", "properties": { "osmid": "894429262", "name": null, "highway": "footway", "maxspeed": null, "oneway": false, "reversed": "True", "length": 5.442, "lanes": null, "service": null }, "geometry": { "type": "LineString", "coordinates": [ [ 151.7646509, -32.9387595 ], [ 151.7646485, -32.9388084 ] ] } },
{ "type": "Feature", "properties": { "osmid": "894429260", "name": null, "highway": "footway", "maxspeed": null, "oneway": false, "reversed": "True", "length": 96.598, "lanes": null, "service": null }, "geometry": { "type": "LineString", "coordinates": [ [ 151.7646509, -32.9387595 ], [ 151.7637997, -32.9387448 ], [ 151.763616, -32.9387413 ] ] } },
{ "type": "Feature", "properties": { "osmid": "894429262", "name": null, "highway": "footway", "maxspeed": null, "oneway": false, "reversed": "False", "length": 6.015, "lanes": null, "service": null }, "geometry": { "type": "LineString", "coordinates": [ [ 151.7646447, -32.9388624 ], [ 151.7646485, -32.9388084 ] ] } },
{ "type": "Feature", "properties": { "osmid": "894429262", "name": null, "highway": "footway", "maxspeed": null, "oneway": false, "reversed": "True", "length": 5.428, "lanes": null, "service": null }, "geometry": { "type": "LineString", "coordinates": [ [ 151.7646447, -32.9388624 ], [ 151.7646432, -32.9389112 ] ] } },
{ "type": "Feature", "properties": { "osmid": "398832520", "name": "Glebe Road", "highway": "secondary", "maxspeed": "50", "oneway": false, "reversed": "False", "length": 18.176, "lanes": null, "service": null }, "geometry": { "type": "LineString", "coordinates": [ [ 151.7646447, -32.9388624 ], [ 151.7645616, -32.938855 ], [ 151.764454199999989, -32.9388308 ] ] } },
{ "type": "Feature", "properties": { "osmid": "894429262", "name": null, "highway": "footway", "maxspeed": null, "oneway": false, "reversed": "False", "length": 5.442, "lanes": null, "service": null }, "geometry": { "type": "LineString", "coordinates": [ [ 151.7646485, -32.9388084 ], [ 151.7646509, -32.9387595 ] ] } },
{ "type": "Feature", "properties": { "osmid": "894429262", "name": null, "highway": "footway", "maxspeed": null, "oneway": false, "reversed": "True", "length": 6.015, "lanes": null, "service": null }, "geometry": { "type": "LineString", "coordinates": [ [ 151.7646485, -32.9388084 ], [ 151.7646447, -32.9388624 ] ] } },
{ "type": "Feature", "properties": { "osmid": "894429263", "name": "Glebe Road", "highway": "secondary", "maxspeed": "50", "oneway": false, "reversed": "True", "length": 18.302, "lanes": null, "service": null }, "geometry": { "type": "LineString", "coordinates": [ [ 151.7646485, -32.9388084 ], [ 151.7645847, -32.9388158 ], [ 151.764454199999989, -32.9388308 ] ] } },
{ "type": "Feature", "properties": { "osmid": "832487293", "name": null, "highway": "footway", "maxspeed": null, "oneway": false, "reversed": "False", "length": 8.108, "lanes": null, "service": null }, "geometry": { "type": "LineString", "coordinates": [ [ 151.763616, -32.9387413 ], [ 151.763614100000012, -32.9388142 ] ] } },
{ "type": "Feature", "properties": { "osmid": "894429260", "name": null, "highway": "footway", "maxspeed": null, "oneway": false, "reversed": "False", "length": 96.598, "lanes": null, "service": null }, "geometry": { "type": "LineString", "coordinates": [ [ 151.763616, -32.9387413 ], [ 151.7637997, -32.9387448 ], [ 151.7646509, -32.9387595 ] ] } },
{ "type": "Feature", "properties": { "osmid": "894429260", "name": null, "highway": "footway", "maxspeed": null, "oneway": false, "reversed": "True", "length": 127.174, "lanes": null, "service": null }, "geometry": { "type": "LineString", "coordinates": [ [ 151.763616, -32.9387413 ], [ 151.762448299999988, -32.9387184 ], [ 151.7622536, -32.9387148 ] ] } },
{ "type": "Feature", "properties": { "osmid": "18068765", "name": "Bruce Street", "highway": "residential", "maxspeed": "50", "oneway": false, "reversed": "True", "length": 7.676, "lanes": null, "service": null }, "geometry": { "type": "LineString", "coordinates": [ [ 151.7621579, -32.9387131 ], [ 151.762155400000012, -32.9387821 ] ] } },
{ "type": "Feature", "properties": { "osmid": "894429260", "name": null, "highway": "footway", "maxspeed": null, "oneway": false, "reversed": "False", "length": 8.933, "lanes": null, "service": null }, "geometry": { "type": "LineString", "coordinates": [ [ 151.7621579, -32.9387131 ], [ 151.7622536, -32.9387148 ] ] } },
{ "type": "Feature", "properties": { "osmid": "894429260", "name": null, "highway": "footway", "maxspeed": null, "oneway": false, "reversed": "True", "length": 8.961, "lanes": null, "service": null }, "geometry": { "type": "LineString", "coordinates": [ [ 151.7621579, -32.9387131 ], [ 151.7620619, -32.9387113 ] ] } },
{ "type": "Feature", "properties": { "osmid": "18068765", "name": "Bruce Street", "highway": "residential", "maxspeed": "50", "oneway": false, "reversed": "False", "length": 105.111, "lanes": null, "service": null }, "geometry": { "type": "LineString", "coordinates": [ [ 151.7621579, -32.9387131 ], [ 151.7621715, -32.938339 ], [ 151.7621805, -32.9382949 ], [ 151.7621915, -32.9382723 ], [ 151.7622265, -32.9382359 ], [ 151.7625605, -32.9378774 ] ] } },
{ "type": "Feature", "properties": { "osmid": "895081607", "name": null, "highway": "footway", "maxspeed": null, "oneway": false, "reversed": "True", "length": 322.455, "lanes": null, "service": null }, "geometry": { "type": "LineString", "coordinates": [ [ 151.76035060000001, -32.9392867 ], [ 151.7603973, -32.9393807 ], [ 151.7636876, -32.9398324 ] ] } },
{ "type": "Feature", "properties": { "osmid": [ 895081608, 895081610 ], "name": null, "highway": "footway", "maxspeed": null, "oneway": false, "reversed": "False", "length": 14.089, "lanes": null, "service": null }, "geometry": { "type": "LineString", "coordinates": [ [ 151.76035060000001, -32.9392867 ], [ 151.7602881, -32.9393381 ], [ 151.7602707, -32.9393524 ], [ 151.760242799999986, -32.9393754 ] ] } },
{ "type": "Feature", "properties": { "osmid": "895089373", "name": null, "highway": "footway", "maxspeed": null, "oneway": false, "reversed": "False", "length": 54.464, "lanes": null, "service": null }, "geometry": { "type": "LineString", "coordinates": [ [ 151.76035060000001, -32.9392867 ], [ 151.760702, -32.9389721 ], [ 151.760750300000012, -32.9389298 ] ] } },
{ "type": "Feature", "properties": { "osmid": [ 895081608, 895081609 ], "name": null, "highway": "footway", "maxspeed": null, "oneway": false, "reversed": "True", "length": 9.273, "lanes": null, "service": null }, "geometry": { "type": "LineString", "coordinates": [ [ 151.7601498, -32.9395003 ], [ 151.760166700000013, -32.9394527 ], [ 151.7601697, -32.9394356 ], [ 151.7601837, -32.9394241 ] ] } },
{ "type": "Feature", "properties": { "osmid": "990204272", "name": null, "highway": "footway", "maxspeed": null, "oneway": false, "reversed": "False", "length": 10.577, "lanes": null, "service": null }, "geometry": { "type": "LineString", "coordinates": [ [ 151.7601498, -32.9395003 ], [ 151.7600961, -32.9394905 ], [ 151.7600481, -32.9395184 ] ] } },
{ "type": "Feature", "properties": { "osmid": "990204272", "name": null, "highway": "footway", "maxspeed": null, "oneway": false, "reversed": "True", "length": 10.577, "lanes": null, "service": null }, "geometry": { "type": "LineString", "coordinates": [ [ 151.7600481, -32.9395184 ], [ 151.7600961, -32.9394905 ], [ 151.7601498, -32.9395003 ] ] } },
{ "type": "Feature", "properties": { "osmid": "201866809", "name": "Bar Beach Avenue", "highway": "residential", "maxspeed": "50", "oneway": false, "reversed": "True", "length": 62.852, "lanes": null, "service": null }, "geometry": { "type": "LineString", "coordinates": [ [ 151.760282, -32.9394412 ], [ 151.7609472, -32.9395297 ] ] } },
{ "type": "Feature", "properties": { "osmid": "895081612", "name": "Bar Beach Avenue", "highway": "residential", "maxspeed": "50", "oneway": false, "reversed": "False", "length": 9.728, "lanes": null, "service": null }, "geometry": { "type": "LineString", "coordinates": [ [ 151.760282, -32.9394412 ], [ 151.7602306, -32.9394443 ], [ 151.7601837, -32.9394241 ] ] } },
{ "type": "Feature", "properties": { "osmid": "895081613", "name": "Bar Beach Avenue", "highway": "residential", "maxspeed": "50", "oneway": false, "reversed": "True", "length": 8.741, "lanes": null, "service": null }, "geometry": { "type": "LineString", "coordinates": [ [ 151.760282, -32.9394412 ], [ 151.7602817, -32.9394106 ], [ 151.760242799999986, -32.9393754 ] ] } },
{ "type": "Feature", "properties": { "osmid": "895081608", "name": null, "highway": "footway", "maxspeed": null, "oneway": false, "reversed": "True", "length": 7.729, "lanes": null, "service": null }, "geometry": { "type": "LineString", "coordinates": [ [ 151.7601837, -32.9394241 ], [ 151.760242799999986, -32.9393754 ] ] } },
{ "type": "Feature", "properties": { "osmid": "895081612", "name": "Bar Beach Avenue", "highway": "residential", "maxspeed": "50", "oneway": false, "reversed": "False", "length": 10.962, "lanes": null, "service": null }, "geometry": { "type": "LineString", "coordinates": [ [ 151.7601837, -32.9394241 ], [ 151.7600888, -32.939366 ] ] } },
{ "type": "Feature", "properties": { "osmid": [ 895081608, 895081609 ], "name": null, "highway": "footway", "maxspeed": null, "oneway": false, "reversed": "False", "length": 9.273, "lanes": null, "service": null }, "geometry": { "type": "LineString", "coordinates": [ [ 151.7601837, -32.9394241 ], [ 151.7601697, -32.9394356 ], [ 151.760166700000013, -32.9394527 ], [ 151.7601498, -32.9395003 ] ] } },
{ "type": "Feature", "properties": { "osmid": "895081612", "name": "Bar Beach Avenue", "highway": "residential", "maxspeed": "50", "oneway": false, "reversed": "True", "length": 9.728, "lanes": null, "service": null }, "geometry": { "type": "LineString", "coordinates": [ [ 151.7601837, -32.9394241 ], [ 151.7602306, -32.9394443 ], [ 151.760282, -32.9394412 ] ] } },
{ "type": "Feature", "properties": { "osmid": "895081613", "name": "Bar Beach Avenue", "highway": "residential", "maxspeed": "50", "oneway": false, "reversed": "False", "length": 11.394, "lanes": null, "service": null }, "geometry": { "type": "LineString", "coordinates": [ [ 151.760154199999988, -32.9393049 ], [ 151.760242799999986, -32.9393754 ] ] } },
{ "type": "Feature", "properties": { "osmid": "901664334", "name": "Watkins Street", "highway": "tertiary", "maxspeed": "50", "oneway": false, "reversed": "False", "length": 9.133, "lanes": null, "service": null }, "geometry": { "type": "LineString", "coordinates": [ [ 151.760154199999988, -32.9393049 ], [ 151.7600888, -32.939366 ] ] } },
{ "type": "Feature", "properties": { "osmid": [ 611263064, 894429251 ], "name": "Watkins Street", "highway": "tertiary", "maxspeed": "50", "oneway": false, "reversed": "True", "length": 68.462, "lanes": null, "service": null }, "geometry": { "type": "LineString", "coordinates": [ [ 151.760154199999988, -32.9393049 ], [ 151.7601938, -32.9392648 ], [ 151.7603393, -32.9391386 ], [ 151.7604165, -32.9390743 ], [ 151.760536800000011, -32.9389739 ], [ 151.7605542, -32.9389584 ], [ 151.7606252, -32.9388572 ], [ 151.760624799999988, -32.9388416 ] ] } },
{ "type": "Feature", "properties": { "osmid": "895081608", "name": null, "highway": "footway", "maxspeed": null, "oneway": false, "reversed": "False", "length": 7.729, "lanes": null, "service": null }, "geometry": { "type": "LineString", "coordinates": [ [ 151.760242799999986, -32.9393754 ], [ 151.7601837, -32.9394241 ] ] } },
{ "type": "Feature", "properties": { "osmid": "895081613", "name": "Bar Beach Avenue", "highway": "residential", "maxspeed": "50", "oneway": false, "reversed": "True", "length": 11.394, "lanes": null, "service": null }, "geometry": { "type": "LineString", "coordinates": [ [ 151.760242799999986, -32.9393754 ], [ 151.760154199999988, -32.9393049 ] ] } },
{ "type": "Feature", "properties": { "osmid": [ 895081608, 895081610 ], "name": null, "highway": "footway", "maxspeed": null, "oneway": false, "reversed": "True", "length": 14.089, "lanes": null, "service": null }, "geometry": { "type": "LineString", "coordinates": [ [ 151.760242799999986, -32.9393754 ], [ 151.7602707, -32.9393524 ], [ 151.7602881, -32.9393381 ], [ 151.76035060000001, -32.9392867 ] ] } },
{ "type": "Feature", "properties": { "osmid": "895081613", "name": "Bar Beach Avenue", "highway": "residential", "maxspeed": "50", "oneway": false, "reversed": "False", "length": 8.741, "lanes": null, "service": null }, "geometry": { "type": "LineString", "coordinates": [ [ 151.760242799999986, -32.9393754 ], [ 151.7602817, -32.9394106 ], [ 151.760282, -32.9394412 ] ] } },
{ "type": "Feature", "properties": { "osmid": "894429247", "name": null, "highway": "footway", "maxspeed": null, "oneway": false, "reversed": "False", "length": 1.481, "lanes": null, "service": null }, "geometry": { "type": "LineString", "coordinates": [ [ 151.7604761, -32.9388349 ], [ 151.7604613, -32.9388301 ] ] } },
{ "type": "Feature", "properties": { "osmid": [ 894429245, 894429247 ], "name": null, "highway": "footway", "maxspeed": null, "oneway": false, "reversed": "True", "length": 13.962, "lanes": null, "service": null }, "geometry": { "type": "LineString", "coordinates": [ [ 151.7604761, -32.9388349 ], [ 151.7604887, -32.9388389 ], [ 151.760502699999989, -32.9388392 ], [ 151.760624799999988, -32.9388416 ] ] } },
{ "type": "Feature", "properties": { "osmid": "990204270", "name": null, "highway": "footway", "maxspeed": null, "oneway": false, "reversed": "True", "length": 32.033, "lanes": null, "service": null }, "geometry": { "type": "LineString", "coordinates": [ [ 151.7604761, -32.9388349 ], [ 151.760298, -32.9389942 ], [ 151.760239399999989, -32.9390435 ] ] } },
{ "type": "Feature", "properties": { "osmid": "894429233", "name": null, "highway": "footway", "maxspeed": null, "oneway": false, "reversed": "False", "length": 9.671, "lanes": null, "service": null }, "geometry": { "type": "LineString", "coordinates": [ [ 151.760855, -32.9388381 ], [ 151.7607514, -32.938836 ] ] } },
{ "type": "Feature", "properties": { "osmid": "895089373", "name": null, "highway": "footway", "maxspeed": null, "oneway": false, "reversed": "True", "length": 14.122, "lanes": null, "service": null }, "geometry": { "type": "LineString", "coordinates": [ [ 151.760855, -32.9388381 ], [ 151.760750300000012, -32.9389298 ] ] } },
{ "type": "Feature", "properties": { "osmid": "894429233", "name": null, "highway": "footway", "maxspeed": null, "oneway": false, "reversed": "True", "length": 353.611, "lanes": null, "service": null }, "geometry": { "type": "LineString", "coordinates": [ [ 151.760855, -32.9388381 ], [ 151.7621427, -32.9388646 ], [ 151.7646432, -32.9389112 ] ] } },
{ "type": "Feature", "properties": { "osmid": "894429246", "name": null, "highway": "footway", "maxspeed": null, "oneway": false, "reversed": "True", "length": 1.091, "lanes": null, "service": null }, "geometry": { "type": "LineString", "coordinates": [ [ 151.760741200000012, -32.9388408 ], [ 151.7607514, -32.938836 ] ] } },
{ "type": "Feature", "properties": { "osmid": "895089374", "name": null, "highway": "footway", "maxspeed": null, "oneway": false, "reversed": "False", "length": 9.933, "lanes": null, "service": null }, "geometry": { "type": "LineString", "coordinates": [ [ 151.760741200000012, -32.9388408 ], [ 151.760750300000012, -32.9389298 ] ] } },
{ "type": "Feature", "properties": { "osmid": [ 894429245, 894429246 ], "name": null, "highway": "footway", "maxspeed": null, "oneway": false, "reversed": "False", "length": 10.955, "lanes": null, "service": null }, "geometry": { "type": "LineString", "coordinates": [ [ 151.760741200000012, -32.9388408 ], [ 151.760735, -32.9388438 ], [ 151.7607228, -32.9388436 ], [ 151.760624799999988, -32.9388416 ] ] } },
{ "type": "Feature", "properties": { "osmid": "895089373", "name": null, "highway": "footway", "maxspeed": null, "oneway": false, "reversed": "False", "length": 14.122, "lanes": null, "service": null }, "geometry": { "type": "LineString", "coordinates": [ [ 151.760750300000012, -32.9389298 ], [ 151.760855, -32.9388381 ] ] } },
{ "type": "Feature", "properties": { "osmid": "895089374", "name": null, "highway": "footway", "maxspeed": null, "oneway": false, "reversed": "True", "length": 9.933, "lanes": null, "service": null }, "geometry": { "type": "LineString", "coordinates": [ [ 151.760750300000012, -32.9389298 ], [ 151.760741200000012, -32.9388408 ] ] } },
{ "type": "Feature", "properties": { "osmid": "895089373", "name": null, "highway": "footway", "maxspeed": null, "oneway": false, "reversed": "True", "length": 54.464, "lanes": null, "service": null }, "geometry": { "type": "LineString", "coordinates": [ [ 151.760750300000012, -32.9389298 ], [ 151.760702, -32.9389721 ], [ 151.76035060000001, -32.9392867 ] ] } },
{ "type": "Feature", "properties": { "osmid": "410723486", "name": null, "highway": "footway", "maxspeed": null, "oneway": false, "reversed": "False", "length": 1.576, "lanes": null, "service": null }, "geometry": { "type": "LineString", "coordinates": [ [ 151.7583445, -32.9387966 ], [ 151.7583529, -32.9387843 ] ] } },
{ "type": "Feature", "properties": { "osmid": "907594553", "name": null, "highway": "footway", "maxspeed": null, "oneway": false, "reversed": "False", "length": 11.565, "lanes": null, "service": null }, "geometry": { "type": "LineString", "coordinates": [ [ 151.7583445, -32.9387966 ], [ 151.7584684, -32.9387987 ] ] } },
{ "type": "Feature", "properties": { "osmid": "410723486", "name": null, "highway": "footway", "maxspeed": null, "oneway": false, "reversed": "True", "length": 13.205, "lanes": null, "service": null }, "geometry": { "type": "LineString", "coordinates": [ [ 151.7583445, -32.9387966 ], [ 151.758303899999987, -32.9388412 ], [ 151.7582596, -32.9388916 ] ] } },
{ "type": "Feature", "properties": { "osmid": "907594553", "name": null, "highway": "footway", "maxspeed": null, "oneway": false, "reversed": "True", "length": 10.51, "lanes": null, "service": null }, "geometry": { "type": "LineString", "coordinates": [ [ 151.758581, -32.9388007 ], [ 151.7584684, -32.9387987 ] ] } },
{ "type": "Feature", "properties": { "osmid": "1213781352", "name": null, "highway": "footway", "maxspeed": null, "oneway": false, "reversed": "False", "length": 3.874, "lanes": null, "service": null }, "geometry": { "type": "LineString", "coordinates": [ [ 151.758581, -32.9388007 ], [ 151.7586169, -32.9387832 ] ] } },
{ "type": "Feature", "properties": { "osmid": "895482058", "name": null, "highway": "footway", "maxspeed": null, "oneway": false, "reversed": "True", "length": 101.231, "lanes": null, "service": null }, "geometry": { "type": "LineString", "coordinates": [ [ 151.7618329, -32.9367833 ], [ 151.7609798, -32.936221 ] ] } },
{ "type": "Feature", "properties": { "osmid": "895780454", "name": null, "highway": "footway", "maxspeed": null, "oneway": false, "reversed": "False", "length": 8.38, "lanes": null, "service": null }, "geometry": { "type": "LineString", "coordinates": [ [ 151.7618329, -32.9367833 ], [ 151.7617792, -32.9368437 ] ] } },
{ "type": "Feature", "properties": { "osmid": "895780455", "name": null, "highway": "footway", "maxspeed": null, "oneway": false, "reversed": "False", "length": 2.935, "lanes": null, "service": null }, "geometry": { "type": "LineString", "coordinates": [ [ 151.7618329, -32.9367833 ], [ 151.761858, -32.9367992 ] ] } },
{ "type": "Feature", "properties": { "osmid": [ 1292804490, 895482060 ], "name": null, "highway": "footway", "maxspeed": null, "oneway": false, "reversed": "False", "length": 9.277, "lanes": null, "service": null }, "geometry": { "type": "LineString", "coordinates": [ [ 151.760819, -32.9361113 ], [ 151.760784699999988, -32.9361271 ], [ 151.7607481, -32.9361673 ] ] } },
{ "type": "Feature", "properties": { "osmid": "895482069", "name": null, "highway": "footway", "maxspeed": null, "oneway": false, "reversed": "True", "length": 52.639, "lanes": null, "service": null }, "geometry": { "type": "LineString", "coordinates": [ [ 151.760703, -32.9362419 ], [ 151.760364399999986, -32.9366111 ], [ 151.760358599999989, -32.9366168 ] ] } },
{ "type": "Feature", "properties": { "osmid": [ 1292804489, 1292804490 ], "name": null, "highway": "footway", "maxspeed": null, "oneway": false, "reversed": "True", "length": 9.617, "lanes": null, "service": null }, "geometry": { "type": "LineString", "coordinates": [ [ 151.760703, -32.9362419 ], [ 151.760707700000012, -32.9362109 ], [ 151.7607481, -32.9361673 ] ] } },
{ "type": "Feature", "properties": { "osmid": "675793032", "name": "Kemp Street", "highway": "residential", "maxspeed": "40", "oneway": false, "reversed": "True", "length": 9.551, "lanes": null, "service": null }, "geometry": { "type": "LineString", "coordinates": [ [ 151.7607481, -32.9361673 ], [ 151.7607768, -32.9361859 ], [ 151.7608291, -32.9362198 ] ] } },
{ "type": "Feature", "properties": { "osmid": [ 1292804489, 1292804490 ], "name": null, "highway": "footway", "maxspeed": null, "oneway": false, "reversed": "False", "length": 9.617, "lanes": null, "service": null }, "geometry": { "type": "LineString", "coordinates": [ [ 151.7607481, -32.9361673 ], [ 151.760707700000012, -32.9362109 ], [ 151.760703, -32.9362419 ] ] } },
{ "type": "Feature", "properties": { "osmid": [ 1292804490, 895482060 ], "name": null, "highway": "footway", "maxspeed": null, "oneway": false, "reversed": "True", "length": 9.277, "lanes": null, "service": null }, "geometry": { "type": "LineString", "coordinates": [ [ 151.7607481, -32.9361673 ], [ 151.760784699999988, -32.9361271 ], [ 151.760819, -32.9361113 ] ] } },
{ "type": "Feature", "properties": { "osmid": "895482058", "name": null, "highway": "footway", "maxspeed": null, "oneway": false, "reversed": "False", "length": 101.231, "lanes": null, "service": null }, "geometry": { "type": "LineString", "coordinates": [ [ 151.7609798, -32.936221 ], [ 151.7618329, -32.9367833 ] ] } },
{ "type": "Feature", "properties": { "osmid": [ 1292804488, 895482062 ], "name": null, "highway": "footway", "maxspeed": null, "oneway": false, "reversed": "True", "length": 8.914, "lanes": null, "service": null }, "geometry": { "type": "LineString", "coordinates": [ [ 151.7609798, -32.936221 ], [ 151.760943, -32.9362371 ], [ 151.760909700000013, -32.9362728 ] ] } },
{ "type": "Feature", "properties": { "osmid": "895780452", "name": null, "highway": "footway", "maxspeed": null, "oneway": false, "reversed": "False", "length": 102.885, "lanes": null, "service": null }, "geometry": { "type": "LineString", "coordinates": [ [ 151.7608492, -32.9363429 ], [ 151.761719199999987, -32.9369112 ] ] } },
{ "type": "Feature", "properties": { "osmid": "895482074", "name": null, "highway": "footway", "maxspeed": null, "oneway": false, "reversed": "False", "length": 205.858, "lanes": null, "service": null }, "geometry": { "type": "LineString", "coordinates": [ [ 151.7608492, -32.9363429 ], [ 151.760833100000013, -32.936335 ], [ 151.7595045, -32.9377932 ] ] } },
{ "type": "Feature", "properties": { "osmid": [ 895482062, 1292804487 ], "name": null, "highway": "footway", "maxspeed": null, "oneway": false, "reversed": "False", "length": 9.634, "lanes": null, "service": null }, "geometry": { "type": "LineString", "coordinates": [ [ 151.7608492, -32.9363429 ], [ 151.7608726, -32.9363125 ], [ 151.760909700000013, -32.9362728 ] ] } },
{ "type": "Feature", "properties": { "osmid": "18069600", "name": "Kemp Street", "highway": "residential", "maxspeed": "50", "oneway": false, "reversed": "True", "length": 103.026, "lanes": null, "service": null }, "geometry": { "type": "LineString", "coordinates": [ [ 151.760909700000013, -32.9362728 ], [ 151.7617792, -32.9368437 ] ] } },
{ "type": "Feature", "properties": { "osmid": "18069600", "name": "Kemp Street", "highway": "residential", "maxspeed": "50", "oneway": false, "reversed": "False", "length": 9.556, "lanes": null, "service": null }, "geometry": { "type": "LineString", "coordinates": [ [ 151.760909700000013, -32.9362728 ], [ 151.7608784, -32.9362522 ], [ 151.7608291, -32.9362198 ] ] } },
{ "type": "Feature", "properties": { "osmid": [ 1292804488, 895482062 ], "name": null, "highway": "footway", "maxspeed": null, "oneway": false, "reversed": "False", "length": 8.914, "lanes": null, "service": null }, "geometry": { "type": "LineString", "coordinates": [ [ 151.760909700000013, -32.9362728 ], [ 151.760943, -32.9362371 ], [ 151.7609798, -32.936221 ] ] } },
{ "type": "Feature", "properties": { "osmid": [ 895482062, 1292804487 ], "name": null, "highway": "footway", "maxspeed": null, "oneway": false, "reversed": "True", "length": 9.634, "lanes": null, "service": null }, "geometry": { "type": "LineString", "coordinates": [ [ 151.760909700000013, -32.9362728 ], [ 151.7608726, -32.9363125 ], [ 151.7608492, -32.9363429 ] ] } },
{ "type": "Feature", "properties": { "osmid": "895482069", "name": null, "highway": "footway", "maxspeed": null, "oneway": false, "reversed": "False", "length": 104.32, "lanes": null, "service": null }, "geometry": { "type": "LineString", "coordinates": [ [ 151.7594229, -32.9360944 ], [ 151.7602986, -32.9366775 ] ] } },
{ "type": "Feature", "properties": { "osmid": "895482069", "name": null, "highway": "footway", "maxspeed": null, "oneway": false, "reversed": "True", "length": 5.367, "lanes": null, "service": null }, "geometry": { "type": "LineString", "coordinates": [ [ 151.7594229, -32.9360944 ], [ 151.7594579, -32.9360561 ] ] } },
{ "type": "Feature", "properties": { "osmid": "895482072", "name": null, "highway": "footway", "maxspeed": null, "oneway": false, "reversed": "False", "length": 142.832, "lanes": null, "service": null }, "geometry": { "type": "LineString", "coordinates": [ [ 151.7594229, -32.9360944 ], [ 151.7585033, -32.9371212 ] ] } },
{ "type": "Feature", "properties": { "osmid": "895482069", "name": null, "highway": "footway", "maxspeed": null, "oneway": false, "reversed": "False", "length": 5.13, "lanes": null, "service": null }, "geometry": { "type": "LineString", "coordinates": [ [ 151.7602986, -32.9366775 ], [ 151.7603337, -32.936642 ] ] } },
{ "type": "Feature", "properties": { "osmid": "895482069", "name": null, "highway": "footway", "maxspeed": null, "oneway": false, "reversed": "True", "length": 104.32, "lanes": null, "service": null }, "geometry": { "type": "LineString", "coordinates": [ [ 151.7602986, -32.9366775 ], [ 151.7594229, -32.9360944 ] ] } },
{ "type": "Feature", "properties": { "osmid": "895482072", "name": null, "highway": "footway", "maxspeed": null, "oneway": false, "reversed": "True", "length": 143.217, "lanes": null, "service": null }, "geometry": { "type": "LineString", "coordinates": [ [ 151.7602986, -32.9366775 ], [ 151.75936870000001, -32.9377021 ] ] } },
{ "type": "Feature", "properties": { "osmid": "61897144", "name": "Brien Street", "highway": "residential", "maxspeed": "40", "oneway": false, "reversed": "False", "length": 7.901, "lanes": null, "service": null }, "geometry": { "type": "LineString", "coordinates": [ [ 151.7594579, -32.9360561 ], [ 151.7593917, -32.9360118 ] ] } },
{ "type": "Feature", "properties": { "osmid": "61897144", "name": "Brien Street", "highway": "residential", "maxspeed": "40", "oneway": false, "reversed": "True", "length": 104.521, "lanes": null, "service": null }, "geometry": { "type": "LineString", "coordinates": [ [ 151.7594579, -32.9360561 ], [ 151.7603337, -32.936642 ] ] } },
{ "type": "Feature", "properties": { "osmid": "895482069", "name": null, "highway": "footway", "maxspeed": null, "oneway": false, "reversed": "False", "length": 5.367, "lanes": null, "service": null }, "geometry": { "type": "LineString", "coordinates": [ [ 151.7594579, -32.9360561 ], [ 151.7594229, -32.9360944 ] ] } },
{ "type": "Feature", "properties": { "osmid": "895482069", "name": null, "highway": "footway", "maxspeed": null, "oneway": false, "reversed": "True", "length": 2.766, "lanes": null, "service": null }, "geometry": { "type": "LineString", "coordinates": [ [ 151.7594579, -32.9360561 ], [ 151.759476, -32.9360364 ] ] } },
{ "type": "Feature", "properties": { "osmid": "61897144", "name": "Brien Street", "highway": "residential", "maxspeed": "40", "oneway": false, "reversed": "False", "length": 104.521, "lanes": null, "service": null }, "geometry": { "type": "LineString", "coordinates": [ [ 151.7603337, -32.936642 ], [ 151.7594579, -32.9360561 ] ] } },
{ "type": "Feature", "properties": { "osmid": "61897144", "name": "Brien Street", "highway": "residential", "maxspeed": "40", "oneway": false, "reversed": "True", "length": 8.309, "lanes": null, "service": null }, "geometry": { "type": "LineString", "coordinates": [ [ 151.7603337, -32.936642 ], [ 151.7604033, -32.9366886 ] ] } },
{ "type": "Feature", "properties": { "osmid": "895482069", "name": null, "highway": "footway", "maxspeed": null, "oneway": false, "reversed": "False", "length": 3.64, "lanes": null, "service": null }, "geometry": { "type": "LineString", "coordinates": [ [ 151.7603337, -32.936642 ], [ 151.760358599999989, -32.9366168 ] ] } },
{ "type": "Feature", "properties": { "osmid": "895482069", "name": null, "highway": "footway", "maxspeed": null, "oneway": false, "reversed": "True", "length": 5.13, "lanes": null, "service": null }, "geometry": { "type": "LineString", "coordinates": [ [ 151.7603337, -32.936642 ], [ 151.7602986, -32.9366775 ] ] } },
{ "type": "Feature", "properties": { "osmid": "895482072", "name": null, "highway": "footway", "maxspeed": null, "oneway": false, "reversed": "False", "length": 143.217, "lanes": null, "service": null }, "geometry": { "type": "LineString", "coordinates": [ [ 151.75936870000001, -32.9377021 ], [ 151.7602986, -32.9366775 ] ] } },
{ "type": "Feature", "properties": { "osmid": "895780477", "name": null, "highway": "footway", "maxspeed": null, "oneway": false, "reversed": "True", "length": 8.01, "lanes": null, "service": null }, "geometry": { "type": "LineString", "coordinates": [ [ 151.75936870000001, -32.9377021 ], [ 151.7593156, -32.9377587 ] ] } },
{ "type": "Feature", "properties": { "osmid": "895780478", "name": null, "highway": "footway", "maxspeed": null, "oneway": false, "reversed": "False", "length": 8.197, "lanes": null, "service": null }, "geometry": { "type": "LineString", "coordinates": [ [ 151.75936870000001, -32.9377021 ], [ 151.7594397, -32.9377455 ] ] } },
{ "type": "Feature", "properties": { "osmid": "895780479", "name": null, "highway": "footway", "maxspeed": null, "oneway": false, "reversed": "False", "length": 11.812, "lanes": null, "service": null }, "geometry": { "type": "LineString", "coordinates": [ [ 151.75936870000001, -32.9377021 ], [ 151.759385400000014, -32.9378074 ] ] } },
{ "type": "Feature", "properties": { "osmid": "895482072", "name": null, "highway": "footway", "maxspeed": null, "oneway": false, "reversed": "True", "length": 104.687, "lanes": null, "service": null }, "geometry": { "type": "LineString", "coordinates": [ [ 151.75936870000001, -32.9377021 ], [ 151.758494899999988, -32.9371305 ], [ 151.7585033, -32.9371212 ] ] } },
{ "type": "Feature", "properties": { "osmid": "895482069", "name": null, "highway": "footway", "maxspeed": null, "oneway": false, "reversed": "True", "length": 3.64, "lanes": null, "service": null }, "geometry": { "type": "LineString", "coordinates": [ [ 151.760358599999989, -32.9366168 ], [ 151.7603337, -32.936642 ] ] } },
{ "type": "Feature", "properties": { "osmid": "895482073", "name": null, "highway": "footway", "maxspeed": null, "oneway": false, "reversed": "False", "length": 104.64, "lanes": null, "service": null }, "geometry": { "type": "LineString", "coordinates": [ [ 151.760358599999989, -32.9366168 ], [ 151.759476, -32.9360364 ] ] } },
{ "type": "Feature", "properties": { "osmid": "895482069", "name": null, "highway": "footway", "maxspeed": null, "oneway": false, "reversed": "False", "length": 52.639, "lanes": null, "service": null }, "geometry": { "type": "LineString", "coordinates": [ [ 151.760358599999989, -32.9366168 ], [ 151.760364399999986, -32.9366111 ], [ 151.760703, -32.9362419 ] ] } },
{ "type": "Feature", "properties": { "osmid": "895482069", "name": null, "highway": "footway", "maxspeed": null, "oneway": false, "reversed": "False", "length": 2.766, "lanes": null, "service": null }, "geometry": { "type": "LineString", "coordinates": [ [ 151.759476, -32.9360364 ], [ 151.7594579, -32.9360561 ] ] } },
{ "type": "Feature", "properties": { "osmid": "895482073", "name": null, "highway": "footway", "maxspeed": null, "oneway": false, "reversed": "True", "length": 104.64, "lanes": null, "service": null }, "geometry": { "type": "LineString", "coordinates": [ [ 151.759476, -32.9360364 ], [ 151.760358599999989, -32.9366168 ] ] } },
{ "type": "Feature", "properties": { "osmid": "895780469", "name": null, "highway": "footway", "maxspeed": null, "oneway": false, "reversed": "True", "length": 42.977, "lanes": null, "service": null }, "geometry": { "type": "LineString", "coordinates": [ [ 151.7595045, -32.9377932 ], [ 151.7598668, -32.9380318 ] ] } },
{ "type": "Feature", "properties": { "osmid": "895780476", "name": null, "highway": "footway", "maxspeed": null, "oneway": false, "reversed": "True", "length": 11.226, "lanes": null, "service": null }, "geometry": { "type": "LineString", "coordinates": [ [ 151.7595045, -32.9377932 ], [ 151.759385400000014, -32.9378074 ] ] } },
{ "type": "Feature", "properties": { "osmid": "895780478", "name": null, "highway": "footway", "maxspeed": null, "oneway": false, "reversed": "True", "length": 8.044, "lanes": null, "service": null }, "geometry": { "type": "LineString", "coordinates": [ [ 151.7595045, -32.9377932 ], [ 151.7594397, -32.9377455 ] ] } },
{ "type": "Feature", "properties": { "osmid": "895780481", "name": null, "highway": "footway", "maxspeed": null, "oneway": false, "reversed": "True", "length": 8.434, "lanes": null, "service": null }, "geometry": { "type": "LineString", "coordinates": [ [ 151.7595045, -32.9377932 ], [ 151.7594516, -32.9378547 ] ] } },
{ "type": "Feature", "properties": { "osmid": "895482074", "name": null, "highway": "footway", "maxspeed": null, "oneway": false, "reversed": "True", "length": 205.858, "lanes": null, "service": null }, "geometry": { "type": "LineString", "coordinates": [ [ 151.7595045, -32.9377932 ], [ 151.760833100000013, -32.936335 ], [ 151.7608492, -32.9363429 ] ] } },
{ "type": "Feature", "properties": { "osmid": "895482059", "name": null, "highway": "footway", "maxspeed": null, "oneway": false, "reversed": "False", "length": 17.54, "lanes": null, "service": null }, "geometry": { "type": "LineString", "coordinates": [ [ 151.7619823, -32.9368814 ], [ 151.7621306, -32.9369783 ] ] } },
{ "type": "Feature", "properties": { "osmid": "895780456", "name": null, "highway": "footway", "maxspeed": null, "oneway": false, "reversed": "False", "length": 3.191, "lanes": null, "service": null }, "geometry": { "type": "LineString", "coordinates": [ [ 151.7619823, -32.9368814 ], [ 151.761955199999989, -32.9368639 ] ] } },
{ "type": "Feature", "properties": { "osmid": "895482059", "name": null, "highway": "footway", "maxspeed": null, "oneway": false, "reversed": "True", "length": 12.597, "lanes": null, "service": null }, "geometry": { "type": "LineString", "coordinates": [ [ 151.7628527, -32.9374498 ], [ 151.762746099999987, -32.9373803 ] ] } },
{ "type": "Feature", "properties": { "osmid": "895482059", "name": null, "highway": "footway", "maxspeed": null, "oneway": false, "reversed": "False", "length": 12.597, "lanes": null, "service": null }, "geometry": { "type": "LineString", "coordinates": [ [ 151.762746099999987, -32.9373803 ], [ 151.7628527, -32.9374498 ] ] } },
{ "type": "Feature", "properties": { "osmid": "895482059", "name": null, "highway": "footway", "maxspeed": null, "oneway": false, "reversed": "True", "length": 72.784, "lanes": null, "service": null }, "geometry": { "type": "LineString", "coordinates": [ [ 151.762746099999987, -32.9373803 ], [ 151.7621306, -32.9369783 ] ] } },
{ "type": "Feature", "properties": { "osmid": "895482082", "name": null, "highway": "service", "maxspeed": null, "oneway": false, "reversed": "False", "length": 8.422, "lanes": null, "service": "driveway" }, "geometry": { "type": "LineString", "coordinates": [ [ 151.762746099999987, -32.9373803 ], [ 151.7626931, -32.9374416 ] ] } },
{ "type": "Feature", "properties": { "osmid": "18069600", "name": "Kemp Street", "highway": "residential", "maxspeed": "50", "oneway": false, "reversed": "False", "length": 72.997, "lanes": null, "service": null }, "geometry": { "type": "LineString", "coordinates": [ [ 151.7626931, -32.9374416 ], [ 151.7620761, -32.9370381 ] ] } },
{ "type": "Feature", "properties": { "osmid": "18069600", "name": "Kemp Street", "highway": "residential", "maxspeed": "50", "oneway": false, "reversed": "True", "length": 19.449, "lanes": null, "service": null }, "geometry": { "type": "LineString", "coordinates": [ [ 151.7626931, -32.9374416 ], [ 151.7628575, -32.9375491 ] ] } },
{ "type": "Feature", "properties": { "osmid": "895482082", "name": null, "highway": "service", "maxspeed": null, "oneway": false, "reversed": "True", "length": 8.422, "lanes": null, "service": "driveway" }, "geometry": { "type": "LineString", "coordinates": [ [ 151.7626931, -32.9374416 ], [ 151.762746099999987, -32.9373803 ] ] } },
{ "type": "Feature", "properties": { "osmid": "895780452", "name": null, "highway": "footway", "maxspeed": null, "oneway": false, "reversed": "False", "length": 204.752, "lanes": null, "service": null }, "geometry": { "type": "LineString", "coordinates": [ [ 151.761719199999987, -32.9369112 ], [ 151.7603889, -32.9383755 ] ] } },
{ "type": "Feature", "properties": { "osmid": "895780452", "name": null, "highway": "footway", "maxspeed": null, "oneway": false, "reversed": "True", "length": 102.885, "lanes": null, "service": null }, "geometry": { "type": "LineString", "coordinates": [ [ 151.761719199999987, -32.9369112 ], [ 151.7608492, -32.9363429 ] ] } },
{ "type": "Feature", "properties": { "osmid": "895780454", "name": null, "highway": "footway", "maxspeed": null, "oneway": false, "reversed": "True", "length": 9.364, "lanes": null, "service": null }, "geometry": { "type": "LineString", "coordinates": [ [ 151.761719199999987, -32.9369112 ], [ 151.7617792, -32.9368437 ] ] } },
{ "type": "Feature", "properties": { "osmid": "895780455", "name": null, "highway": "footway", "maxspeed": null, "oneway": false, "reversed": "True", "length": 2.935, "lanes": null, "service": null }, "geometry": { "type": "LineString", "coordinates": [ [ 151.761858, -32.9367992 ], [ 151.7618329, -32.9367833 ] ] } },
{ "type": "Feature", "properties": { "osmid": "895780456", "name": null, "highway": "footway", "maxspeed": null, "oneway": false, "reversed": "True", "length": 3.191, "lanes": null, "service": null }, "geometry": { "type": "LineString", "coordinates": [ [ 151.761955199999989, -32.9368639 ], [ 151.7619823, -32.9368814 ] ] } },
{ "type": "Feature", "properties": { "osmid": "895780457", "name": null, "highway": "footway", "maxspeed": null, "oneway": false, "reversed": "False", "length": 6.747, "lanes": null, "service": null }, "geometry": { "type": "LineString", "coordinates": [ [ 151.760560700000013, -32.9384414 ], [ 151.760517099999987, -32.9384898 ] ] } },
{ "type": "Feature", "properties": { "osmid": "895780457", "name": null, "highway": "footway", "maxspeed": null, "oneway": false, "reversed": "True", "length": 167.302, "lanes": null, "service": null }, "geometry": { "type": "LineString", "coordinates": [ [ 151.760560700000013, -32.9384414 ], [ 151.7616434, -32.9372422 ] ] } },
{ "type": "Feature", "properties": { "osmid": "895780458", "name": null, "highway": "footway", "maxspeed": null, "oneway": false, "reversed": "True", "length": 6.088, "lanes": null, "service": null }, "geometry": { "type": "LineString", "coordinates": [ [ 151.760560700000013, -32.9384414 ], [ 151.7604957, -32.9384367 ] ] } },
{ "type": "Feature", "properties": { "osmid": "895780459", "name": null, "highway": "service", "maxspeed": null, "oneway": false, "reversed": "False", "length": 8.47, "lanes": null, "service": "driveway" }, "geometry": { "type": "LineString", "coordinates": [ [ 151.76157, -32.9371974 ], [ 151.7616434, -32.9372422 ] ] } },
{ "type": "Feature", "properties": { "osmid": "675793038", "name": "Corlette Street", "highway": "residential", "maxspeed": "50", "oneway": false, "reversed": "False", "length": 42.602, "lanes": null, "service": null }, "geometry": { "type": "LineString", "coordinates": [ [ 151.76157, -32.9371974 ], [ 151.7618061, -32.93694 ], [ 151.7618483, -32.9368937 ] ] } },
{ "type": "Feature", "properties": { "osmid": [ 675793038, 10954527 ], "name": "Corlette Street", "highway": "residential", "maxspeed": [ "40", "50" ], "oneway": false, "reversed": "True", "length": 170.706, "lanes": null, "service": null }, "geometry": { "type": "LineString", "coordinates": [ [ 151.76157, -32.9371974 ], [ 151.760539200000011, -32.9382998 ], [ 151.7604407, -32.9384051 ] ] } },
{ "type": "Feature", "properties": { "osmid": "895780457", "name": null, "highway": "footway", "maxspeed": null, "oneway": false, "reversed": "False", "length": 167.302, "lanes": null, "service": null }, "geometry": { "type": "LineString", "coordinates": [ [ 151.7616434, -32.9372422 ], [ 151.760560700000013, -32.9384414 ] ] } },
{ "type": "Feature", "properties": { "osmid": "895780459", "name": null, "highway": "service", "maxspeed": null, "oneway": false, "reversed": "True", "length": 8.47, "lanes": null, "service": "driveway" }, "geometry": { "type": "LineString", "coordinates": [ [ 151.7616434, -32.9372422 ], [ 151.76157, -32.9371974 ] ] } },
{ "type": "Feature", "properties": { "osmid": [ 895780457, 895780461 ], "name": null, "highway": "footway", "maxspeed": null, "oneway": false, "reversed": [ false, true ], "length": 171.947, "lanes": null, "service": null }, "geometry": { "type": "LineString", "coordinates": [ [ 151.7616434, -32.9372422 ], [ 151.76186, -32.9370023 ], [ 151.762721699999986, -32.9375696 ], [ 151.762485700000013, -32.9378288 ] ] } },
{ "type": "Feature", "properties": { "osmid": "895482059", "name": null, "highway": "footway", "maxspeed": null, "oneway": false, "reversed": "False", "length": 72.784, "lanes": null, "service": null }, "geometry": { "type": "LineString", "coordinates": [ [ 151.7621306, -32.9369783 ], [ 151.762746099999987, -32.9373803 ] ] } },
{ "type": "Feature", "properties": { "osmid": "895482059", "name": null, "highway": "footway", "maxspeed": null, "oneway": false, "reversed": "True", "length": 17.54, "lanes": null, "service": null }, "geometry": { "type": "LineString", "coordinates": [ [ 151.7621306, -32.9369783 ], [ 151.7619823, -32.9368814 ] ] } },
{ "type": "Feature", "properties": { "osmid": "895780460", "name": null, "highway": "service", "maxspeed": null, "oneway": false, "reversed": "False", "length": 8.372, "lanes": null, "service": "driveway" }, "geometry": { "type": "LineString", "coordinates": [ [ 151.7621306, -32.9369783 ], [ 151.7620761, -32.9370381 ] ] } },
{ "type": "Feature", "properties": { "osmid": "18069600", "name": "Kemp Street", "highway": "residential", "maxspeed": "50", "oneway": false, "reversed": "True", "length": 72.997, "lanes": null, "service": null }, "geometry": { "type": "LineString", "coordinates": [ [ 151.7620761, -32.9370381 ], [ 151.7626931, -32.9374416 ] ] } },
{ "type": "Feature", "properties": { "osmid": "895780460", "name": null, "highway": "service", "maxspeed": null, "oneway": false, "reversed": "True", "length": 8.372, "lanes": null, "service": "driveway" }, "geometry": { "type": "LineString", "coordinates": [ [ 151.7620761, -32.9370381 ], [ 151.7621306, -32.9369783 ] ] } },
{ "type": "Feature", "properties": { "osmid": "18069600", "name": "Kemp Street", "highway": "residential", "maxspeed": "50", "oneway": false, "reversed": "False", "length": 26.647, "lanes": null, "service": null }, "geometry": { "type": "LineString", "coordinates": [ [ 151.7620761, -32.9370381 ], [ 151.7618966, -32.9369271 ], [ 151.7618483, -32.9368937 ] ] } },
{ "type": "Feature", "properties": { "osmid": "894429260", "name": null, "highway": "footway", "maxspeed": null, "oneway": false, "reversed": "False", "length": 8.961, "lanes": null, "service": null }, "geometry": { "type": "LineString", "coordinates": [ [ 151.7620619, -32.9387113 ], [ 151.7621579, -32.9387131 ] ] } },
{ "type": "Feature", "properties": { "osmid": "894429260", "name": null, "highway": "footway", "maxspeed": null, "oneway": false, "reversed": "True", "length": 121.672, "lanes": null, "service": null }, "geometry": { "type": "LineString", "coordinates": [ [ 151.7620619, -32.9387113 ], [ 151.760758399999986, -32.9386875 ] ] } },
{ "type": "Feature", "properties": { "osmid": "895780461", "name": null, "highway": "footway", "maxspeed": null, "oneway": false, "reversed": "True", "length": 110.984, "lanes": null, "service": null }, "geometry": { "type": "LineString", "coordinates": [ [ 151.7620619, -32.9387113 ], [ 151.762075900000013, -32.9382888 ], [ 151.7620813, -32.9382731 ], [ 151.762485700000013, -32.9378288 ] ] } },
{ "type": "Feature", "properties": { "osmid": "894429260", "name": null, "highway": "footway", "maxspeed": null, "oneway": false, "reversed": "True", "length": 8.933, "lanes": null, "service": null }, "geometry": { "type": "LineString", "coordinates": [ [ 151.7622536, -32.9387148 ], [ 151.7621579, -32.9387131 ] ] } },
{ "type": "Feature", "properties": { "osmid": "894429260", "name": null, "highway": "footway", "maxspeed": null, "oneway": false, "reversed": "False", "length": 127.174, "lanes": null, "service": null }, "geometry": { "type": "LineString", "coordinates": [ [ 151.7622536, -32.9387148 ], [ 151.762448299999988, -32.9387184 ], [ 151.763616, -32.9387413 ] ] } },
{ "type": "Feature", "properties": { "osmid": "895780462", "name": null, "highway": "footway", "maxspeed": null, "oneway": false, "reversed": "False", "length": 124.915, "lanes": null, "service": null }, "geometry": { "type": "LineString", "coordinates": [ [ 151.7622536, -32.9387148 ], [ 151.762238200000013, -32.9387019 ], [ 151.7622496, -32.9383263 ], [ 151.7627819, -32.9377497 ] ] } },
{ "type": "Feature", "properties": { "osmid": "895780462", "name": null, "highway": "footway", "maxspeed": null, "oneway": false, "reversed": "True", "length": 9.729, "lanes": null, "service": null }, "geometry": { "type": "LineString", "coordinates": [ [ 151.762845700000014, -32.9376805 ], [ 151.7627819, -32.9377497 ] ] } },
{ "type": "Feature", "properties": { "osmid": "895780462", "name": null, "highway": "footway", "maxspeed": null, "oneway": false, "reversed": "False", "length": 9.729, "lanes": null, "service": null }, "geometry": { "type": "LineString", "coordinates": [ [ 151.7627819, -32.9377497 ], [ 151.762845700000014, -32.9376805 ] ] } },
{ "type": "Feature", "properties": { "osmid": "895780463", "name": null, "highway": "service", "maxspeed": null, "oneway": false, "reversed": "False", "length": 7.867, "lanes": null, "service": "driveway" }, "geometry": { "type": "LineString", "coordinates": [ [ 151.7627819, -32.9377497 ], [ 151.76271460000001, -32.9377071 ] ] } },
{ "type": "Feature", "properties": { "osmid": "895780462", "name": null, "highway": "footway", "maxspeed": null, "oneway": false, "reversed": "True", "length": 124.915, "lanes": null, "service": null }, "geometry": { "type": "LineString", "coordinates": [ [ 151.7627819, -32.9377497 ], [ 151.7622496, -32.9383263 ], [ 151.762238200000013, -32.9387019 ], [ 151.7622536, -32.9387148 ] ] } },
{ "type": "Feature", "properties": { "osmid": "18068765", "name": "Bruce Street", "highway": "residential", "maxspeed": "50", "oneway": false, "reversed": "False", "length": 22.057, "lanes": null, "service": null }, "geometry": { "type": "LineString", "coordinates": [ [ 151.76271460000001, -32.9377071 ], [ 151.7628575, -32.9375491 ] ] } },
{ "type": "Feature", "properties": { "osmid": "18068765", "name": "Bruce Street", "highway": "residential", "maxspeed": "50", "oneway": false, "reversed": "True", "length": 23.778, "lanes": null, "service": null }, "geometry": { "type": "LineString", "coordinates": [ [ 151.76271460000001, -32.9377071 ], [ 151.7625605, -32.9378774 ] ] } },
{ "type": "Feature", "properties": { "osmid": "895780463", "name": null, "highway": "service", "maxspeed": null, "oneway": false, "reversed": "True", "length": 7.867, "lanes": null, "service": "driveway" }, "geometry": { "type": "LineString", "coordinates": [ [ 151.76271460000001, -32.9377071 ], [ 151.7627819, -32.9377497 ] ] } },
{ "type": "Feature", "properties": { "osmid": "895780467", "name": null, "highway": "service", "maxspeed": null, "oneway": false, "reversed": "False", "length": 8.828, "lanes": null, "service": "driveway" }, "geometry": { "type": "LineString", "coordinates": [ [ 151.762485700000013, -32.9378288 ], [ 151.7625605, -32.9378774 ] ] } },
{ "type": "Feature", "properties": { "osmid": "895780461", "name": null, "highway": "footway", "maxspeed": null, "oneway": false, "reversed": "False", "length": 110.984, "lanes": null, "service": null }, "geometry": { "type": "LineString", "coordinates": [ [ 151.762485700000013, -32.9378288 ], [ 151.7620813, -32.9382731 ], [ 151.762075900000013, -32.9382888 ], [ 151.7620619, -32.9387113 ] ] } },
{ "type": "Feature", "properties": { "osmid": [ 895780457, 895780461 ], "name": null, "highway": "footway", "maxspeed": null, "oneway": false, "reversed": [ false, true ], "length": 171.947, "lanes": null, "service": null }, "geometry": { "type": "LineString", "coordinates": [ [ 151.762485700000013, -32.9378288 ], [ 151.762721699999986, -32.9375696 ], [ 151.76186, -32.9370023 ], [ 151.7616434, -32.9372422 ] ] } },
{ "type": "Feature", "properties": { "osmid": "18068765", "name": "Bruce Street", "highway": "residential", "maxspeed": "50", "oneway": false, "reversed": "False", "length": 23.778, "lanes": null, "service": null }, "geometry": { "type": "LineString", "coordinates": [ [ 151.7625605, -32.9378774 ], [ 151.76271460000001, -32.9377071 ] ] } },
{ "type": "Feature", "properties": { "osmid": "895780467", "name": null, "highway": "service", "maxspeed": null, "oneway": false, "reversed": "True", "length": 8.828, "lanes": null, "service": "driveway" }, "geometry": { "type": "LineString", "coordinates": [ [ 151.7625605, -32.9378774 ], [ 151.762485700000013, -32.9378288 ] ] } },
{ "type": "Feature", "properties": { "osmid": "18068765", "name": "Bruce Street", "highway": "residential", "maxspeed": "50", "oneway": false, "reversed": "True", "length": 105.111, "lanes": null, "service": null }, "geometry": { "type": "LineString", "coordinates": [ [ 151.7625605, -32.9378774 ], [ 151.7622265, -32.9382359 ], [ 151.7621915, -32.9382723 ], [ 151.7621805, -32.9382949 ], [ 151.7621715, -32.938339 ], [ 151.7621579, -32.9387131 ] ] } },
{ "type": "Feature", "properties": { "osmid": "675793034", "name": "Kenrick Street", "highway": "residential", "maxspeed": "40", "oneway": false, "reversed": "False", "length": 20.46, "lanes": null, "service": null }, "geometry": { "type": "LineString", "coordinates": [ [ 151.7598084, -32.938098 ], [ 151.759980399999989, -32.9382121 ] ] } },
{ "type": "Feature", "properties": { "osmid": "895780470", "name": null, "highway": "service", "maxspeed": null, "oneway": false, "reversed": "False", "length": 9.159, "lanes": null, "service": "driveway" }, "geometry": { "type": "LineString", "coordinates": [ [ 151.7598084, -32.938098 ], [ 151.7598668, -32.9380318 ] ] } },
{ "type": "Feature", "properties": { "osmid": "675793034", "name": "Kenrick Street", "highway": "residential", "maxspeed": "40", "oneway": false, "reversed": "True", "length": 42.902, "lanes": null, "service": null }, "geometry": { "type": "LineString", "coordinates": [ [ 151.7598084, -32.938098 ], [ 151.7594776, -32.9378721 ], [ 151.7594516, -32.9378547 ] ] } },
{ "type": "Feature", "properties": { "osmid": "675793034", "name": "Kenrick Street", "highway": "residential", "maxspeed": "40", "oneway": false, "reversed": "False", "length": 41.07, "lanes": null, "service": null }, "geometry": { "type": "LineString", "coordinates": [ [ 151.759980399999989, -32.9382121 ], [ 151.760325599999987, -32.9384412 ] ] } },
{ "type": "Feature", "properties": { "osmid": "675793034", "name": "Kenrick Street", "highway": "residential", "maxspeed": "40", "oneway": false, "reversed": "True", "length": 20.46, "lanes": null, "service": null }, "geometry": { "type": "LineString", "coordinates": [ [ 151.759980399999989, -32.9382121 ], [ 151.7598084, -32.938098 ] ] } },
{ "type": "Feature", "properties": { "osmid": "895780472", "name": null, "highway": "service", "maxspeed": null, "oneway": false, "reversed": "True", "length": 9.235, "lanes": null, "service": "driveway" }, "geometry": { "type": "LineString", "coordinates": [ [ 151.759980399999989, -32.9382121 ], [ 151.76004, -32.9381458 ] ] } },
{ "type": "Feature", "properties": { "osmid": "895780469", "name": null, "highway": "footway", "maxspeed": null, "oneway": false, "reversed": "False", "length": 42.977, "lanes": null, "service": null }, "geometry": { "type": "LineString", "coordinates": [ [ 151.7598668, -32.9380318 ], [ 151.7595045, -32.9377932 ] ] } },
{ "type": "Feature", "properties": { "osmid": "895780470", "name": null, "highway": "service", "maxspeed": null, "oneway": false, "reversed": "True", "length": 9.159, "lanes": null, "service": "driveway" }, "geometry": { "type": "LineString", "coordinates": [ [ 151.7598668, -32.9380318 ], [ 151.7598084, -32.938098 ] ] } },
{ "type": "Feature", "properties": { "osmid": "895780471", "name": null, "highway": "footway", "maxspeed": null, "oneway": false, "reversed": "True", "length": 20.541, "lanes": null, "service": null }, "geometry": { "type": "LineString", "coordinates": [ [ 151.7598668, -32.9380318 ], [ 151.76004, -32.9381458 ] ] } },
{ "type": "Feature", "properties": { "osmid": "895780468", "name": null, "highway": "service", "maxspeed": null, "oneway": false, "reversed": "False", "length": 63.522, "lanes": null, "service": "parking_aisle" }, "geometry": { "type": "LineString", "coordinates": [ [ 151.7598668, -32.9380318 ], [ 151.7600019, -32.9378786 ], [ 151.7601794, -32.9379909 ], [ 151.76004, -32.9381458 ] ] } },
{ "type": "Feature", "properties": { "osmid": "895780453", "name": null, "highway": "footway", "maxspeed": null, "oneway": false, "reversed": "True", "length": 41.382, "lanes": null, "service": null }, "geometry": { "type": "LineString", "coordinates": [ [ 151.76004, -32.9381458 ], [ 151.7603889, -32.9383755 ] ] } },
{ "type": "Feature", "properties": { "osmid": "895780471", "name": null, "highway": "footway", "maxspeed": null, "oneway": false, "reversed": "False", "length": 20.541, "lanes": null, "service": null }, "geometry": { "type": "LineString", "coordinates": [ [ 151.76004, -32.9381458 ], [ 151.7598668, -32.9380318 ] ] } },
{ "type": "Feature", "properties": { "osmid": "895780468", "name": null, "highway": "service", "maxspeed": null, "oneway": false, "reversed": "True", "length": 63.522, "lanes": null, "service": "parking_aisle" }, "geometry": { "type": "LineString", "coordinates": [ [ 151.76004, -32.9381458 ], [ 151.7601794, -32.9379909 ], [ 151.7600019, -32.9378786 ], [ 151.7598668, -32.9380318 ] ] } },
{ "type": "Feature", "properties": { "osmid": "895780472", "name": null, "highway": "service", "maxspeed": null, "oneway": false, "reversed": "False", "length": 9.235, "lanes": null, "service": "driveway" }, "geometry": { "type": "LineString", "coordinates": [ [ 151.76004, -32.9381458 ], [ 151.759980399999989, -32.9382121 ] ] } },
{ "type": "Feature", "properties": { "osmid": "895780473", "name": null, "highway": "footway", "maxspeed": null, "oneway": false, "reversed": "False", "length": 104.395, "lanes": null, "service": null }, "geometry": { "type": "LineString", "coordinates": [ [ 151.7593975, -32.9379115 ], [ 151.76026920000001, -32.9384999 ] ] } },
{ "type": "Feature", "properties": { "osmid": "895780474", "name": null, "highway": "footway", "maxspeed": null, "oneway": false, "reversed": "False", "length": 99.569, "lanes": null, "service": null }, "geometry": { "type": "LineString", "coordinates": [ [ 151.7593975, -32.9379115 ], [ 151.758752500000014, -32.9386248 ] ] } },
{ "type": "Feature", "properties": { "osmid": "895780479", "name": null, "highway": "footway", "maxspeed": null, "oneway": false, "reversed": "True", "length": 11.63, "lanes": null, "service": null }, "geometry": { "type": "LineString", "coordinates": [ [ 151.7593975, -32.9379115 ], [ 151.759385400000014, -32.9378074 ] ] } },
{ "type": "Feature", "properties": { "osmid": "895780480", "name": null, "highway": "footway", "maxspeed": null, "oneway": false, "reversed": "True", "length": 7.997, "lanes": null, "service": null }, "geometry": { "type": "LineString", "coordinates": [ [ 151.7593975, -32.9379115 ], [ 151.7593276, -32.9378699 ] ] } },
{ "type": "Feature", "properties": { "osmid": "895780481", "name": null, "highway": "footway", "maxspeed": null, "oneway": false, "reversed": "False", "length": 8.086, "lanes": null, "service": null }, "geometry": { "type": "LineString", "coordinates": [ [ 151.7593975, -32.9379115 ], [ 151.7594516, -32.9378547 ] ] } },
{ "type": "Feature", "properties": { "osmid": "895780474", "name": null, "highway": "footway", "maxspeed": null, "oneway": false, "reversed": "False", "length": 0.841, "lanes": null, "service": null }, "geometry": { "type": "LineString", "coordinates": [ [ 151.758752500000014, -32.9386248 ], [ 151.7587562, -32.9386317 ] ] } },
{ "type": "Feature", "properties": { "osmid": "895780474", "name": null, "highway": "footway", "maxspeed": null, "oneway": false, "reversed": "True", "length": 99.569, "lanes": null, "service": null }, "geometry": { "type": "LineString", "coordinates": [ [ 151.758752500000014, -32.9386248 ], [ 151.7593975, -32.9379115 ] ] } },
{ "type": "Feature", "properties": { "osmid": "1213781350", "name": null, "highway": "footway", "maxspeed": null, "oneway": false, "reversed": "True", "length": 11.879, "lanes": null, "service": null }, "geometry": { "type": "LineString", "coordinates": [ [ 151.758752500000014, -32.9386248 ], [ 151.7586253, -32.9386289 ] ] } },
{ "type": "Feature", "properties": { "osmid": "895780475", "name": null, "highway": "footway", "maxspeed": null, "oneway": false, "reversed": "False", "length": 104.194, "lanes": null, "service": null }, "geometry": { "type": "LineString", "coordinates": [ [ 151.758369, -32.9372505 ], [ 151.7592549, -32.9378208 ] ] } },
{ "type": "Feature", "properties": { "osmid": "895780484", "name": null, "highway": "footway", "maxspeed": null, "oneway": false, "reversed": "False", "length": 123.478, "lanes": null, "service": null }, "geometry": { "type": "LineString", "coordinates": [ [ 151.758369, -32.9372505 ], [ 151.757567599999987, -32.9381341 ] ] } },
{ "type": "Feature", "properties": { "osmid": "895780486", "name": null, "highway": "footway", "maxspeed": null, "oneway": false, "reversed": "False", "length": 8.307, "lanes": null, "service": null }, "geometry": { "type": "LineString", "coordinates": [ [ 151.758369, -32.9372505 ], [ 151.75830160000001, -32.9372017 ] ] } },
{ "type": "Feature", "properties": { "osmid": "895780475", "name": null, "highway": "footway", "maxspeed": null, "oneway": false, "reversed": "True", "length": 104.194, "lanes": null, "service": null }, "geometry": { "type": "LineString", "coordinates": [ [ 151.7592549, -32.9378208 ], [ 151.758369, -32.9372505 ] ] } },
{ "type": "Feature", "properties": { "osmid": "895780476", "name": null, "highway": "footway", "maxspeed": null, "oneway": false, "reversed": "False", "length": 12.269, "lanes": null, "service": null }, "geometry": { "type": "LineString", "coordinates": [ [ 151.7592549, -32.9378208 ], [ 151.759385400000014, -32.9378074 ] ] } },
{ "type": "Feature", "properties": { "osmid": "895780477", "name": null, "highway": "footway", "maxspeed": null, "oneway": false, "reversed": "False", "length": 8.931, "lanes": null, "service": null }, "geometry": { "type": "LineString", "coordinates": [ [ 151.7592549, -32.9378208 ], [ 151.7593156, -32.9377587 ] ] } },
{ "type": "Feature", "properties": { "osmid": "895780480", "name": null, "highway": "footway", "maxspeed": null, "oneway": false, "reversed": "False", "length": 8.708, "lanes": null, "service": null }, "geometry": { "type": "LineString", "coordinates": [ [ 151.7592549, -32.9378208 ], [ 151.7593276, -32.9378699 ] ] } },
{ "type": "Feature", "properties": { "osmid": "895780475", "name": null, "highway": "footway", "maxspeed": null, "oneway": false, "reversed": "False", "length": 113.945, "lanes": null, "service": null }, "geometry": { "type": "LineString", "coordinates": [ [ 151.7592549, -32.9378208 ], [ 151.7591478, -32.9379374 ], [ 151.758509800000013, -32.9386326 ] ] } },
{ "type": "Feature", "properties": { "osmid": "895780485", "name": null, "highway": "footway", "maxspeed": null, "oneway": false, "reversed": "True", "length": 1.437, "lanes": null, "service": null }, "geometry": { "type": "LineString", "coordinates": [ [ 151.758509800000013, -32.9386326 ], [ 151.758494399999989, -32.9386327 ] ] } },
{ "type": "Feature", "properties": { "osmid": "1213781350", "name": null, "highway": "footway", "maxspeed": null, "oneway": false, "reversed": "False", "length": 10.786, "lanes": null, "service": null }, "geometry": { "type": "LineString", "coordinates": [ [ 151.758509800000013, -32.9386326 ], [ 151.7586253, -32.9386289 ] ] } },
{ "type": "Feature", "properties": { "osmid": "895780475", "name": null, "highway": "footway", "maxspeed": null, "oneway": false, "reversed": "True", "length": 113.945, "lanes": null, "service": null }, "geometry": { "type": "LineString", "coordinates": [ [ 151.758509800000013, -32.9386326 ], [ 151.7591478, -32.9379374 ], [ 151.7592549, -32.9378208 ] ] } },
{ "type": "Feature", "properties": { "osmid": "675793040", "name": "Kenrick Street", "highway": "residential", "maxspeed": "40", "oneway": false, "reversed": "False", "length": 59.408, "lanes": null, "service": null }, "geometry": { "type": "LineString", "coordinates": [ [ 151.7588096, -32.9374345 ], [ 151.75929, -32.9377426 ], [ 151.7593156, -32.9377587 ] ] } },
{ "type": "Feature", "properties": { "osmid": "895780482", "name": "Kenrick Street", "highway": "residential", "maxspeed": "40", "oneway": false, "reversed": "False", "length": 53.998, "lanes": null, "service": null }, "geometry": { "type": "LineString", "coordinates": [ [ 151.7588096, -32.9374345 ], [ 151.7587536, -32.9374267 ], [ 151.758394900000013, -32.9371956 ], [ 151.758339400000011, -32.9371603 ] ] } },
{ "type": "Feature", "properties": { "osmid": "895780483", "name": "Kenrick Street", "highway": "residential", "maxspeed": "40", "oneway": false, "reversed": "True", "length": 54.251, "lanes": null, "service": null }, "geometry": { "type": "LineString", "coordinates": [ [ 151.7588096, -32.9374345 ], [ 151.7587901, -32.9373889 ], [ 151.758384, -32.9371115 ] ] } },
{ "type": "Feature", "properties": { "osmid": "675793039", "name": "Farquhar Street", "highway": "residential", "maxspeed": "40", "oneway": false, "reversed": "False", "length": 5.768, "lanes": null, "service": null }, "geometry": { "type": "LineString", "coordinates": [ [ 151.758384, -32.9371115 ], [ 151.758421700000014, -32.9370704 ] ] } },
{ "type": "Feature", "properties": { "osmid": "675793039", "name": "Farquhar Street", "highway": "residential", "maxspeed": "40", "oneway": false, "reversed": "True", "length": 3.309, "lanes": null, "service": null }, "geometry": { "type": "LineString", "coordinates": [ [ 151.758384, -32.9371115 ], [ 151.75836240000001, -32.9371351 ] ] } },
{ "type": "Feature", "properties": { "osmid": "895780483", "name": "Kenrick Street", "highway": "residential", "maxspeed": "40", "oneway": false, "reversed": "False", "length": 54.251, "lanes": null, "service": null }, "geometry": { "type": "LineString", "coordinates": [ [ 151.758384, -32.9371115 ], [ 151.7587901, -32.9373889 ], [ 151.7588096, -32.9374345 ] ] } },
{ "type": "Feature", "properties": { "osmid": "18298327", "name": "Farquhar Street", "highway": "residential", "maxspeed": "40", "oneway": false, "reversed": "False", "length": 5.8, "lanes": null, "service": null }, "geometry": { "type": "LineString", "coordinates": [ [ 151.758339400000011, -32.9371603 ], [ 151.75830160000001, -32.9372017 ] ] } },
{ "type": "Feature", "properties": { "osmid": "18298327", "name": "Farquhar Street", "highway": "residential", "maxspeed": "40", "oneway": false, "reversed": "True", "length": 3.53, "lanes": null, "service": null }, "geometry": { "type": "LineString", "coordinates": [ [ 151.758339400000011, -32.9371603 ], [ 151.75836240000001, -32.9371351 ] ] } },
{ "type": "Feature", "properties": { "osmid": "895780482", "name": "Kenrick Street", "highway": "residential", "maxspeed": "40", "oneway": false, "reversed": "True", "length": 53.998, "lanes": null, "service": null }, "geometry": { "type": "LineString", "coordinates": [ [ 151.758339400000011, -32.9371603 ], [ 151.758394900000013, -32.9371956 ], [ 151.7587536, -32.9374267 ], [ 151.7588096, -32.9374345 ] ] } },
{ "type": "Feature", "properties": { "osmid": "895780486", "name": null, "highway": "footway", "maxspeed": null, "oneway": false, "reversed": "False", "length": 8.942, "lanes": null, "service": null }, "geometry": { "type": "LineString", "coordinates": [ [ 151.758235500000012, -32.937154 ], [ 151.7582955, -32.9370913 ] ] } },
{ "type": "Feature", "properties": { "osmid": "895780486", "name": null, "highway": "footway", "maxspeed": null, "oneway": false, "reversed": "True", "length": 8.135, "lanes": null, "service": null }, "geometry": { "type": "LineString", "coordinates": [ [ 151.758235500000012, -32.937154 ], [ 151.75830160000001, -32.9372017 ] ] } },
{ "type": "Feature", "properties": { "osmid": [ 895780488, 895797935 ], "name": null, "highway": "footway", "maxspeed": null, "oneway": false, "reversed": "False", "length": 202.941, "lanes": null, "service": null }, "geometry": { "type": "LineString", "coordinates": [ [ 151.758235500000012, -32.937154 ], [ 151.7569427, -32.9385727 ], [ 151.7569595, -32.9385799 ], [ 151.7569871, -32.9385816 ] ] } },
{ "type": "Feature", "properties": { "osmid": "895780486", "name": null, "highway": "footway", "maxspeed": null, "oneway": false, "reversed": "True", "length": 8.942, "lanes": null, "service": null }, "geometry": { "type": "LineString", "coordinates": [ [ 151.7582955, -32.9370913 ], [ 151.758235500000012, -32.937154 ] ] } },
{ "type": "Feature", "properties": { "osmid": "200884468", "name": "Kenrick Street", "highway": "residential", "maxspeed": "50", "oneway": false, "reversed": "False", "length": 7.918, "lanes": null, "service": null }, "geometry": { "type": "LineString", "coordinates": [ [ 151.7582955, -32.9370913 ], [ 151.758309700000012, -32.9371006 ], [ 151.75836240000001, -32.9371351 ] ] } },
{ "type": "Feature", "properties": { "osmid": "200884468", "name": "Kenrick Street", "highway": "residential", "maxspeed": "50", "oneway": false, "reversed": "True", "length": 113.602, "lanes": null, "service": null }, "geometry": { "type": "LineString", "coordinates": [ [ 151.7582955, -32.9370913 ], [ 151.7573883, -32.9364972 ], [ 151.7573358, -32.9364628 ] ] } },
{ "type": "Feature", "properties": { "osmid": "18298327", "name": "Farquhar Street", "highway": "residential", "maxspeed": "40", "oneway": false, "reversed": "False", "length": 123.499, "lanes": null, "service": null }, "geometry": { "type": "LineString", "coordinates": [ [ 151.75830160000001, -32.9372017 ], [ 151.7574967, -32.9380833 ] ] } },
{ "type": "Feature", "properties": { "osmid": "18298327", "name": "Farquhar Street", "highway": "residential", "maxspeed": "40", "oneway": false, "reversed": "True", "length": 5.8, "lanes": null, "service": null }, "geometry": { "type": "LineString", "coordinates": [ [ 151.75830160000001, -32.9372017 ], [ 151.758339400000011, -32.9371603 ] ] } },
{ "type": "Feature", "properties": { "osmid": "895780486", "name": null, "highway": "footway", "maxspeed": null, "oneway": false, "reversed": "False", "length": 8.135, "lanes": null, "service": null }, "geometry": { "type": "LineString", "coordinates": [ [ 151.75830160000001, -32.9372017 ], [ 151.758235500000012, -32.937154 ] ] } },
{ "type": "Feature", "properties": { "osmid": "895780486", "name": null, "highway": "footway", "maxspeed": null, "oneway": false, "reversed": "True", "length": 8.307, "lanes": null, "service": null }, "geometry": { "type": "LineString", "coordinates": [ [ 151.75830160000001, -32.9372017 ], [ 151.758369, -32.9372505 ] ] } },
{ "type": "Feature", "properties": { "osmid": "895482072", "name": null, "highway": "footway", "maxspeed": null, "oneway": false, "reversed": "True", "length": 142.832, "lanes": null, "service": null }, "geometry": { "type": "LineString", "coordinates": [ [ 151.7585033, -32.9371212 ], [ 151.7594229, -32.9360944 ] ] } },
{ "type": "Feature", "properties": { "osmid": "895780487", "name": null, "highway": "footway", "maxspeed": null, "oneway": false, "reversed": "False", "length": 9.481, "lanes": null, "service": null }, "geometry": { "type": "LineString", "coordinates": [ [ 151.7585033, -32.9371212 ], [ 151.758421700000014, -32.9370704 ] ] } },
{ "type": "Feature", "properties": { "osmid": "895482072", "name": null, "highway": "footway", "maxspeed": null, "oneway": false, "reversed": "False", "length": 104.687, "lanes": null, "service": null }, "geometry": { "type": "LineString", "coordinates": [ [ 151.7585033, -32.9371212 ], [ 151.758494899999988, -32.9371305 ], [ 151.75936870000001, -32.9377021 ] ] } },
{ "type": "Feature", "properties": { "osmid": "895780487", "name": null, "highway": "footway", "maxspeed": null, "oneway": false, "reversed": "True", "length": 8.235, "lanes": null, "service": null }, "geometry": { "type": "LineString", "coordinates": [ [ 151.758350900000011, -32.9370262 ], [ 151.758421700000014, -32.9370704 ] ] } },
{ "type": "Feature", "properties": { "osmid": "675793039", "name": "Farquhar Street", "highway": "residential", "maxspeed": "40", "oneway": false, "reversed": "True", "length": 5.768, "lanes": null, "service": null }, "geometry": { "type": "LineString", "coordinates": [ [ 151.758421700000014, -32.9370704 ], [ 151.758384, -32.9371115 ] ] } },
{ "type": "Feature", "properties": { "osmid": "895780487", "name": null, "highway": "footway", "maxspeed": null, "oneway": false, "reversed": "False", "length": 8.235, "lanes": null, "service": null }, "geometry": { "type": "LineString", "coordinates": [ [ 151.758421700000014, -32.9370704 ], [ 151.758350900000011, -32.9370262 ] ] } },
{ "type": "Feature", "properties": { "osmid": "895780487", "name": null, "highway": "footway", "maxspeed": null, "oneway": false, "reversed": "True", "length": 9.481, "lanes": null, "service": null }, "geometry": { "type": "LineString", "coordinates": [ [ 151.758421700000014, -32.9370704 ], [ 151.7585033, -32.9371212 ] ] } },
{ "type": "Feature", "properties": { "osmid": "675793039", "name": "Farquhar Street", "highway": "residential", "maxspeed": "40", "oneway": false, "reversed": "False", "length": 148.494, "lanes": null, "service": null }, "geometry": { "type": "LineString", "coordinates": [ [ 151.758421700000014, -32.9370704 ], [ 151.7584732, -32.9370142 ], [ 151.7593917, -32.9360118 ] ] } },
{ "type": "Feature", "properties": { "osmid": [ 895780484, 895780485 ], "name": null, "highway": "footway", "maxspeed": null, "oneway": false, "reversed": "False", "length": 124.598, "lanes": null, "service": null }, "geometry": { "type": "LineString", "coordinates": [ [ 151.757166899999987, -32.9385766 ], [ 151.7571767, -32.9385876 ], [ 151.758494399999989, -32.9386327 ] ] } },
{ "type": "Feature", "properties": { "osmid": "895780484", "name": null, "highway": "footway", "maxspeed": null, "oneway": false, "reversed": "True", "length": 45.196, "lanes": null, "service": null }, "geometry": { "type": "LineString", "coordinates": [ [ 151.757166899999987, -32.9385766 ], [ 151.7571735, -32.9385657 ], [ 151.757459399999988, -32.9382529 ] ] } },
{ "type": "Feature", "properties": { "osmid": [ 895797936, 895797935 ], "name": null, "highway": "footway", "maxspeed": null, "oneway": false, "reversed": "True", "length": 4.388, "lanes": null, "service": null }, "geometry": { "type": "LineString", "coordinates": [ [ 151.757166899999987, -32.9385766 ], [ 151.757142, -32.9385754 ], [ 151.7571204, -32.9385792 ] ] } },
{ "type": "Feature", "properties": { "osmid": "895780489", "name": "Farquhar Street", "highway": "residential", "maxspeed": "40", "oneway": false, "reversed": "False", "length": 9.773, "lanes": "1", "service": null }, "geometry": { "type": "LineString", "coordinates": [ [ 151.7571204, -32.9385792 ], [ 151.75714880000001, -32.9386638 ] ] } },
{ "type": "Feature", "properties": { "osmid": "895780489", "name": "Farquhar Street", "highway": "residential", "maxspeed": "40", "oneway": false, "reversed": "True", "length": 10.877, "lanes": "1", "service": null }, "geometry": { "type": "LineString", "coordinates": [ [ 151.7571204, -32.9385792 ], [ 151.757118100000014, -32.9385494 ], [ 151.7571323, -32.9384825 ] ] } },
{ "type": "Feature", "properties": { "osmid": [ 895797936, 895797935 ], "name": null, "highway": "footway", "maxspeed": null, "oneway": false, "reversed": "False", "length": 4.388, "lanes": null, "service": null }, "geometry": { "type": "LineString", "coordinates": [ [ 151.7571204, -32.9385792 ], [ 151.757142, -32.9385754 ], [ 151.757166899999987, -32.9385766 ] ] } },
{ "type": "Feature", "properties": { "osmid": "895797935", "name": null, "highway": "footway", "maxspeed": null, "oneway": false, "reversed": "True", "length": 12.532, "lanes": null, "service": null }, "geometry": { "type": "LineString", "coordinates": [ [ 151.7571204, -32.9385792 ], [ 151.7570819, -32.938586 ], [ 151.7569871, -32.9385816 ] ] } },
{ "type": "Feature", "properties": { "osmid": "18298327", "name": "Farquhar Street", "highway": "residential", "maxspeed": "40", "oneway": false, "reversed": "True", "length": 38.861, "lanes": null, "service": null }, "geometry": { "type": "LineString", "coordinates": [ [ 151.7571323, -32.9384825 ], [ 151.7573856, -32.9382051 ] ] } },
{ "type": "Feature", "properties": { "osmid": "895780489", "name": "Farquhar Street", "highway": "residential", "maxspeed": "40", "oneway": false, "reversed": "False", "length": 10.877, "lanes": "1", "service": null }, "geometry": { "type": "LineString", "coordinates": [ [ 151.7571323, -32.9384825 ], [ 151.757118100000014, -32.9385494 ], [ 151.7571204, -32.9385792 ] ] } },
{ "type": "Feature", "properties": { "osmid": "895780490", "name": "Farquhar Street", "highway": "residential", "maxspeed": "40", "oneway": false, "reversed": "True", "length": 18.033, "lanes": "1", "service": null }, "geometry": { "type": "LineString", "coordinates": [ [ 151.7571323, -32.9384825 ], [ 151.7570715, -32.9384996 ], [ 151.7569871, -32.9385816 ] ] } },
{ "type": "Feature", "properties": { "osmid": "895780490", "name": "Farquhar Street", "highway": "residential", "maxspeed": "40", "oneway": false, "reversed": "False", "length": 10.874, "lanes": "1", "service": null }, "geometry": { "type": "LineString", "coordinates": [ [ 151.7569112, -32.9386558 ], [ 151.7569871, -32.9385816 ] ] } },
{ "type": "Feature", "properties": { "osmid": "895780491", "name": "Glebe Road", "highway": "secondary", "maxspeed": "60", "oneway": false, "reversed": "False", "length": 22.191, "lanes": null, "service": null }, "geometry": { "type": "LineString", "coordinates": [ [ 151.7569112, -32.9386558 ], [ 151.75714880000001, -32.9386638 ] ] } },
{ "type": "Feature", "properties": { "osmid": "380519861", "name": "Glebe Road", "highway": "secondary", "maxspeed": "60", "oneway": false, "reversed": "True", "length": 138.587, "lanes": null, "service": null }, "geometry": { "type": "LineString", "coordinates": [ [ 151.7569112, -32.9386558 ], [ 151.7568169, -32.9386447 ], [ 151.75542870000001, -32.9385881 ] ] } },
{ "type": "Feature", "properties": { "osmid": "895780490", "name": "Farquhar Street", "highway": "residential", "maxspeed": "40", "oneway": false, "reversed": "True", "length": 10.874, "lanes": "1", "service": null }, "geometry": { "type": "LineString", "coordinates": [ [ 151.7569871, -32.9385816 ], [ 151.7569112, -32.9386558 ] ] } },
{ "type": "Feature", "properties": { "osmid": "895780490", "name": "Farquhar Street", "highway": "residential", "maxspeed": "40", "oneway": false, "reversed": "False", "length": 18.033, "lanes": "1", "service": null }, "geometry": { "type": "LineString", "coordinates": [ [ 151.7569871, -32.9385816 ], [ 151.7570715, -32.9384996 ], [ 151.7571323, -32.9384825 ] ] } },
{ "type": "Feature", "properties": { "osmid": "895797935", "name": null, "highway": "footway", "maxspeed": null, "oneway": false, "reversed": "False", "length": 12.532, "lanes": null, "service": null }, "geometry": { "type": "LineString", "coordinates": [ [ 151.7569871, -32.9385816 ], [ 151.7570819, -32.938586 ], [ 151.7571204, -32.9385792 ] ] } },
{ "type": "Feature", "properties": { "osmid": [ 895780488, 895797935 ], "name": null, "highway": "footway", "maxspeed": null, "oneway": false, "reversed": "True", "length": 202.941, "lanes": null, "service": null }, "geometry": { "type": "LineString", "coordinates": [ [ 151.7569871, -32.9385816 ], [ 151.7569595, -32.9385799 ], [ 151.7569427, -32.9385727 ], [ 151.758235500000012, -32.937154 ] ] } },
{ "type": "Feature", "properties": { "osmid": "18298327", "name": "Farquhar Street", "highway": "residential", "maxspeed": "40", "oneway": false, "reversed": "False", "length": 10.772, "lanes": null, "service": null }, "geometry": { "type": "LineString", "coordinates": [ [ 151.7574558, -32.9381282 ], [ 151.7573856, -32.9382051 ] ] } },
{ "type": "Feature", "properties": { "osmid": "18298327", "name": "Farquhar Street", "highway": "residential", "maxspeed": "40", "oneway": false, "reversed": "True", "length": 6.285, "lanes": null, "service": null }, "geometry": { "type": "LineString", "coordinates": [ [ 151.7574558, -32.9381282 ], [ 151.7574967, -32.9380833 ] ] } },
{ "type": "Feature", "properties": { "osmid": "895780492", "name": null, "highway": "service", "maxspeed": null, "oneway": false, "reversed": "True", "length": 8.707, "lanes": null, "service": "driveway" }, "geometry": { "type": "LineString", "coordinates": [ [ 151.7574558, -32.9381282 ], [ 151.7575278, -32.938178 ] ] } },
{ "type": "Feature", "properties": { "osmid": "895780492", "name": null, "highway": "service", "maxspeed": null, "oneway": false, "reversed": "False", "length": 18.751, "lanes": null, "service": "driveway" }, "geometry": { "type": "LineString", "coordinates": [ [ 151.757683, -32.9382851 ], [ 151.7575278, -32.938178 ] ] } },
{ "type": "Feature", "properties": { "osmid": "18298327", "name": "Farquhar Street", "highway": "residential", "maxspeed": "40", "oneway": false, "reversed": "False", "length": 6.285, "lanes": null, "service": null }, "geometry": { "type": "LineString", "coordinates": [ [ 151.7574967, -32.9380833 ], [ 151.7574558, -32.9381282 ] ] } },
{ "type": "Feature", "properties": { "osmid": "18298327", "name": "Farquhar Street", "highway": "residential", "maxspeed": "40", "oneway": false, "reversed": "True", "length": 123.499, "lanes": null, "service": null }, "geometry": { "type": "LineString", "coordinates": [ [ 151.7574967, -32.9380833 ], [ 151.75830160000001, -32.9372017 ] ] } },
{ "type": "Feature", "properties": { "osmid": "895780493", "name": null, "highway": "service", "maxspeed": null, "oneway": false, "reversed": "False", "length": 8.7, "lanes": null, "service": "driveway" }, "geometry": { "type": "LineString", "coordinates": [ [ 151.7574967, -32.9380833 ], [ 151.757567599999987, -32.9381341 ] ] } },
{ "type": "Feature", "properties": { "osmid": "895780493", "name": null, "highway": "service", "maxspeed": null, "oneway": false, "reversed": "True", "length": 19.33, "lanes": null, "service": "driveway" }, "geometry": { "type": "LineString", "coordinates": [ [ 151.75772520000001, -32.9382469 ], [ 151.757567599999987, -32.9381341 ] ] } },
{ "type": "Feature", "properties": { "osmid": "895780484", "name": null, "highway": "footway", "maxspeed": null, "oneway": false, "reversed": "False", "length": 10.493, "lanes": null, "service": null }, "geometry": { "type": "LineString", "coordinates": [ [ 151.7575278, -32.938178 ], [ 151.757459399999988, -32.9382529 ] ] } },
{ "type": "Feature", "properties": { "osmid": "895780484", "name": null, "highway": "footway", "maxspeed": null, "oneway": false, "reversed": "True", "length": 6.134, "lanes": null, "service": null }, "geometry": { "type": "LineString", "coordinates": [ [ 151.7575278, -32.938178 ], [ 151.757567599999987, -32.9381341 ] ] } },
{ "type": "Feature", "properties": { "osmid": "895780492", "name": null, "highway": "service", "maxspeed": null, "oneway": false, "reversed": "False", "length": 8.707, "lanes": null, "service": "driveway" }, "geometry": { "type": "LineString", "coordinates": [ [ 151.7575278, -32.938178 ], [ 151.7574558, -32.9381282 ] ] } },
{ "type": "Feature", "properties": { "osmid": "895780492", "name": null, "highway": "service", "maxspeed": null, "oneway": false, "reversed": "True", "length": 18.751, "lanes": null, "service": "driveway" }, "geometry": { "type": "LineString", "coordinates": [ [ 151.7575278, -32.938178 ], [ 151.757683, -32.9382851 ] ] } },
{ "type": "Feature", "properties": { "osmid": "895780484", "name": null, "highway": "footway", "maxspeed": null, "oneway": false, "reversed": "False", "length": 6.134, "lanes": null, "service": null }, "geometry": { "type": "LineString", "coordinates": [ [ 151.757567599999987, -32.9381341 ], [ 151.7575278, -32.938178 ] ] } },
{ "type": "Feature", "properties": { "osmid": "895780484", "name": null, "highway": "footway", "maxspeed": null, "oneway": false, "reversed": "True", "length": 123.478, "lanes": null, "service": null }, "geometry": { "type": "LineString", "coordinates": [ [ 151.757567599999987, -32.9381341 ], [ 151.758369, -32.9372505 ] ] } },
{ "type": "Feature", "properties": { "osmid": "895780493", "name": null, "highway": "service", "maxspeed": null, "oneway": false, "reversed": "False", "length": 19.33, "lanes": null, "service": "driveway" }, "geometry": { "type": "LineString", "coordinates": [ [ 151.757567599999987, -32.9381341 ], [ 151.75772520000001, -32.9382469 ] ] } },
{ "type": "Feature", "properties": { "osmid": "895780493", "name": null, "highway": "service", "maxspeed": null, "oneway": false, "reversed": "True", "length": 8.7, "lanes": null, "service": "driveway" }, "geometry": { "type": "LineString", "coordinates": [ [ 151.757567599999987, -32.9381341 ], [ 151.7574967, -32.9380833 ] ] } },
{ "type": "Feature", "properties": { "osmid": "18069600", "name": "Kemp Street", "highway": "residential", "maxspeed": "50", "oneway": false, "reversed": "False", "length": 103.026, "lanes": null, "service": null }, "geometry": { "type": "LineString", "coordinates": [ [ 151.7617792, -32.9368437 ], [ 151.760909700000013, -32.9362728 ] ] } },
{ "type": "Feature", "properties": { "osmid": "895780454", "name": null, "highway": "footway", "maxspeed": null, "oneway": false, "reversed": "False", "length": 9.364, "lanes": null, "service": null }, "geometry": { "type": "LineString", "coordinates": [ [ 151.7617792, -32.9368437 ], [ 151.761719199999987, -32.9369112 ] ] } },
{ "type": "Feature", "properties": { "osmid": "895780454", "name": null, "highway": "footway", "maxspeed": null, "oneway": false, "reversed": "True", "length": 8.38, "lanes": null, "service": null }, "geometry": { "type": "LineString", "coordinates": [ [ 151.7617792, -32.9368437 ], [ 151.7618329, -32.9367833 ] ] } },
{ "type": "Feature", "properties": { "osmid": "18069600", "name": "Kemp Street", "highway": "residential", "maxspeed": "50", "oneway": false, "reversed": "True", "length": 8.518, "lanes": null, "service": null }, "geometry": { "type": "LineString", "coordinates": [ [ 151.7617792, -32.9368437 ], [ 151.7618047, -32.9368635 ], [ 151.7618483, -32.9368937 ] ] } },
{ "type": "Feature", "properties": { "osmid": "895812900", "name": null, "highway": "footway", "maxspeed": null, "oneway": false, "reversed": "False", "length": 8.435, "lanes": null, "service": null }, "geometry": { "type": "LineString", "coordinates": [ [ 151.7572085, -32.9364765 ], [ 151.7572774, -32.9365256 ] ] } },
{ "type": "Feature", "properties": { "osmid": "398832527", "name": "Ravenshaw Street", "highway": "residential", "maxspeed": "50", "oneway": false, "reversed": "True", "length": 8.858, "lanes": null, "service": null }, "geometry": { "type": "LineString", "coordinates": [ [ 151.7572774, -32.9365256 ], [ 151.7573358, -32.9364628 ] ] } },
{ "type": "Feature", "properties": { "osmid": "895812900", "name": null, "highway": "footway", "maxspeed": null, "oneway": false, "reversed": "True", "length": 8.435, "lanes": null, "service": null }, "geometry": { "type": "LineString", "coordinates": [ [ 151.7572774, -32.9365256 ], [ 151.7572085, -32.9364765 ] ] } },
{ "type": "Feature", "properties": { "osmid": [ 398832528, 398832527 ], "name": "Ravenshaw Street", "highway": "residential", "maxspeed": "50", "oneway": false, "reversed": "False", "length": 213.505, "lanes": null, "service": null }, "geometry": { "type": "LineString", "coordinates": [ [ 151.7572774, -32.9365256 ], [ 151.7562696, -32.9376088 ], [ 151.7558694, -32.938039 ] ] } },
{ "type": "Feature", "properties": { "osmid": "950665504", "name": null, "highway": "footway", "maxspeed": null, "oneway": false, "reversed": "False", "length": 12.933, "lanes": null, "service": null }, "geometry": { "type": "LineString", "coordinates": [ [ 151.7579977, -32.9387754 ], [ 151.7580003, -32.9387983 ], [ 151.758005, -32.9388172 ], [ 151.7580175, -32.9388383 ], [ 151.7580341, -32.9388533 ], [ 151.7580619, -32.9388721 ] ] } },
{ "type": "Feature", "properties": { "osmid": "950665504", "name": null, "highway": "footway", "maxspeed": null, "oneway": false, "reversed": "False", "length": 16.186, "lanes": null, "service": null }, "geometry": { "type": "LineString", "coordinates": [ [ 151.7580619, -32.9388721 ], [ 151.758192900000012, -32.9389675 ] ] } },
{ "type": "Feature", "properties": { "osmid": "950665504", "name": null, "highway": "footway", "maxspeed": null, "oneway": false, "reversed": "True", "length": 12.933, "lanes": null, "service": null }, "geometry": { "type": "LineString", "coordinates": [ [ 151.7580619, -32.9388721 ], [ 151.7580341, -32.9388533 ], [ 151.7580175, -32.9388383 ], [ 151.758005, -32.9388172 ], [ 151.7580003, -32.9387983 ], [ 151.7579977, -32.9387754 ] ] } },
{ "type": "Feature", "properties": { "osmid": "950665505", "name": null, "highway": "footway", "maxspeed": null, "oneway": false, "reversed": "False", "length": 11.22, "lanes": null, "service": null }, "geometry": { "type": "LineString", "coordinates": [ [ 151.7580619, -32.9388721 ], [ 151.7580956, -32.9388749 ], [ 151.75813, -32.9388699 ], [ 151.7581538, -32.9388588 ], [ 151.7581716, -32.938845 ] ] } },
{ "type": "Feature", "properties": { "osmid": "410723486", "name": null, "highway": "footway", "maxspeed": null, "oneway": false, "reversed": "False", "length": 10.487, "lanes": null, "service": null }, "geometry": { "type": "LineString", "coordinates": [ [ 151.758192900000012, -32.9389675 ], [ 151.7582596, -32.9388916 ] ] } },
{ "type": "Feature", "properties": { "osmid": "950665504", "name": null, "highway": "footway", "maxspeed": null, "oneway": false, "reversed": "True", "length": 16.186, "lanes": null, "service": null }, "geometry": { "type": "LineString", "coordinates": [ [ 151.758192900000012, -32.9389675 ], [ 151.7580619, -32.9388721 ] ] } },
{ "type": "Feature", "properties": { "osmid": "950665506", "name": null, "highway": "footway", "maxspeed": null, "oneway": false, "reversed": "False", "length": 9.71, "lanes": null, "service": null }, "geometry": { "type": "LineString", "coordinates": [ [ 151.7581716, -32.938845 ], [ 151.7582596, -32.9388916 ] ] } },
{ "type": "Feature", "properties": { "osmid": "950665505", "name": null, "highway": "footway", "maxspeed": null, "oneway": false, "reversed": "False", "length": 7.568, "lanes": null, "service": null }, "geometry": { "type": "LineString", "coordinates": [ [ 151.7581716, -32.938845 ], [ 151.758184199999988, -32.9388261 ], [ 151.7581888, -32.9388072 ], [ 151.758187600000014, -32.9387801 ] ] } },
{ "type": "Feature", "properties": { "osmid": "950665505", "name": null, "highway": "footway", "maxspeed": null, "oneway": false, "reversed": "True", "length": 11.22, "lanes": null, "service": null }, "geometry": { "type": "LineString", "coordinates": [ [ 151.7581716, -32.938845 ], [ 151.7581538, -32.9388588 ], [ 151.75813, -32.9388699 ], [ 151.7580956, -32.9388749 ], [ 151.7580619, -32.9388721 ] ] } },
{ "type": "Feature", "properties": { "osmid": "950665505", "name": null, "highway": "footway", "maxspeed": null, "oneway": false, "reversed": "True", "length": 7.568, "lanes": null, "service": null }, "geometry": { "type": "LineString", "coordinates": [ [ 151.758187600000014, -32.9387801 ], [ 151.7581888, -32.9388072 ], [ 151.758184199999988, -32.9388261 ], [ 151.7581716, -32.938845 ] ] } },
{ "type": "Feature", "properties": { "osmid": "410723486", "name": null, "highway": "footway", "maxspeed": null, "oneway": false, "reversed": "True", "length": 10.487, "lanes": null, "service": null }, "geometry": { "type": "LineString", "coordinates": [ [ 151.7582596, -32.9388916 ], [ 151.758192900000012, -32.9389675 ] ] } },
{ "type": "Feature", "properties": { "osmid": "950665506", "name": null, "highway": "footway", "maxspeed": null, "oneway": false, "reversed": "True", "length": 9.71, "lanes": null, "service": null }, "geometry": { "type": "LineString", "coordinates": [ [ 151.7582596, -32.9388916 ], [ 151.7581716, -32.938845 ] ] } },
{ "type": "Feature", "properties": { "osmid": "410723486", "name": null, "highway": "footway", "maxspeed": null, "oneway": false, "reversed": "False", "length": 13.205, "lanes": null, "service": null }, "geometry": { "type": "LineString", "coordinates": [ [ 151.7582596, -32.9388916 ], [ 151.758303899999987, -32.9388412 ], [ 151.7583445, -32.9387966 ] ] } },
{ "type": "Feature", "properties": { "osmid": "895780484", "name": null, "highway": "footway", "maxspeed": null, "oneway": false, "reversed": "True", "length": 10.493, "lanes": null, "service": null }, "geometry": { "type": "LineString", "coordinates": [ [ 151.757459399999988, -32.9382529 ], [ 151.7575278, -32.938178 ] ] } },
{ "type": "Feature", "properties": { "osmid": "971568176", "name": null, "highway": "service", "maxspeed": null, "oneway": false, "reversed": "False", "length": 24.426, "lanes": null, "service": "parking_aisle" }, "geometry": { "type": "LineString", "coordinates": [ [ 151.757459399999988, -32.9382529 ], [ 151.75766680000001, -32.9383869 ] ] } },
{ "type": "Feature", "properties": { "osmid": "971568177", "name": null, "highway": "service", "maxspeed": null, "oneway": false, "reversed": "True", "length": 8.7, "lanes": null, "service": null }, "geometry": { "type": "LineString", "coordinates": [ [ 151.757459399999988, -32.9382529 ], [ 151.7573856, -32.9382051 ] ] } },
{ "type": "Feature", "properties": { "osmid": "895780484", "name": null, "highway": "footway", "maxspeed": null, "oneway": false, "reversed": "False", "length": 45.196, "lanes": null, "service": null }, "geometry": { "type": "LineString", "coordinates": [ [ 151.757459399999988, -32.9382529 ], [ 151.7571735, -32.9385657 ], [ 151.757166899999987, -32.9385766 ] ] } },
{ "type": "Feature", "properties": { "osmid": "971568176", "name": null, "highway": "service", "maxspeed": null, "oneway": false, "reversed": "True", "length": 24.426, "lanes": null, "service": "parking_aisle" }, "geometry": { "type": "LineString", "coordinates": [ [ 151.75766680000001, -32.9383869 ], [ 151.757459399999988, -32.9382529 ] ] } },
{ "type": "Feature", "properties": { "osmid": "18298327", "name": "Farquhar Street", "highway": "residential", "maxspeed": "40", "oneway": false, "reversed": "False", "length": 38.861, "lanes": null, "service": null }, "geometry": { "type": "LineString", "coordinates": [ [ 151.7573856, -32.9382051 ], [ 151.7571323, -32.9384825 ] ] } },
{ "type": "Feature", "properties": { "osmid": "18298327", "name": "Farquhar Street", "highway": "residential", "maxspeed": "40", "oneway": false, "reversed": "True", "length": 10.772, "lanes": null, "service": null }, "geometry": { "type": "LineString", "coordinates": [ [ 151.7573856, -32.9382051 ], [ 151.7574558, -32.9381282 ] ] } },
{ "type": "Feature", "properties": { "osmid": "971568177", "name": null, "highway": "service", "maxspeed": null, "oneway": false, "reversed": "False", "length": 8.7, "lanes": null, "service": null }, "geometry": { "type": "LineString", "coordinates": [ [ 151.7573856, -32.9382051 ], [ 151.757459399999988, -32.9382529 ] ] } },
{ "type": "Feature", "properties": { "osmid": "990204270", "name": null, "highway": "footway", "maxspeed": null, "oneway": false, "reversed": "False", "length": 32.033, "lanes": null, "service": null }, "geometry": { "type": "LineString", "coordinates": [ [ 151.760239399999989, -32.9390435 ], [ 151.760298, -32.9389942 ], [ 151.7604761, -32.9388349 ] ] } },
{ "type": "Feature", "properties": { "osmid": "895780474", "name": null, "highway": "footway", "maxspeed": null, "oneway": false, "reversed": "True", "length": 0.841, "lanes": null, "service": null }, "geometry": { "type": "LineString", "coordinates": [ [ 151.7587562, -32.9386317 ], [ 151.758752500000014, -32.9386248 ] ] } },
{ "type": "Feature", "properties": { "osmid": "1213781349", "name": null, "highway": "footway", "maxspeed": null, "oneway": false, "reversed": "False", "length": 12.269, "lanes": null, "service": null }, "geometry": { "type": "LineString", "coordinates": [ [ 151.7587562, -32.9386317 ], [ 151.75867550000001, -32.9387188 ] ] } },
{ "type": "Feature", "properties": { "osmid": "895780474", "name": null, "highway": "footway", "maxspeed": null, "oneway": false, "reversed": "False", "length": 132.464, "lanes": null, "service": null }, "geometry": { "type": "LineString", "coordinates": [ [ 151.7587562, -32.9386317 ], [ 151.7587633, -32.938645 ], [ 151.7601647, -32.9386817 ] ] } },
{ "type": "Feature", "properties": { "osmid": "1213781349", "name": null, "highway": "footway", "maxspeed": null, "oneway": false, "reversed": "True", "length": 9.01, "lanes": null, "service": null }, "geometry": { "type": "LineString", "coordinates": [ [ 151.7586169, -32.9387832 ], [ 151.75867550000001, -32.9387188 ] ] } },
{ "type": "Feature", "properties": { "osmid": "1213781352", "name": null, "highway": "footway", "maxspeed": null, "oneway": false, "reversed": "True", "length": 3.874, "lanes": null, "service": null }, "geometry": { "type": "LineString", "coordinates": [ [ 151.7586169, -32.9387832 ], [ 151.758581, -32.9388007 ] ] } },
{ "type": "Feature", "properties": { "osmid": "1213781649", "name": "Glebe Road", "highway": "footway", "maxspeed": null, "oneway": false, "reversed": "False", "length": 172.334, "lanes": null, "service": null }, "geometry": { "type": "LineString", "coordinates": [ [ 151.7586169, -32.9387832 ], [ 151.7589745, -32.9387945 ], [ 151.759353800000014, -32.9387998 ], [ 151.7597556, -32.9388089 ], [ 151.7601872, -32.9388157 ], [ 151.760425, -32.9388207 ], [ 151.7604613, -32.9388301 ] ] } },
{ "type": "Feature", "properties": { "osmid": "895780485", "name": null, "highway": "footway", "maxspeed": null, "oneway": false, "reversed": "False", "length": 1.437, "lanes": null, "service": null }, "geometry": { "type": "LineString", "coordinates": [ [ 151.758494399999989, -32.9386327 ], [ 151.758509800000013, -32.9386326 ] ] } },
{ "type": "Feature", "properties": { "osmid": "1213781351", "name": null, "highway": "footway", "maxspeed": null, "oneway": false, "reversed": "False", "length": 11.944, "lanes": null, "service": null }, "geometry": { "type": "LineString", "coordinates": [ [ 151.758494399999989, -32.9386327 ], [ 151.75840980000001, -32.9387133 ] ] } },
{ "type": "Feature", "properties": { "osmid": [ 895780484, 895780485 ], "name": null, "highway": "footway", "maxspeed": null, "oneway": false, "reversed": "True", "length": 124.598, "lanes": null, "service": null }, "geometry": { "type": "LineString", "coordinates": [ [ 151.758494399999989, -32.9386327 ], [ 151.7571767, -32.9385876 ], [ 151.757166899999987, -32.9385766 ] ] } },
{ "type": "Feature", "properties": { "osmid": "1213781351", "name": null, "highway": "footway", "maxspeed": null, "oneway": false, "reversed": "True", "length": 10.646, "lanes": null, "service": null }, "geometry": { "type": "LineString", "coordinates": [ [ 151.7583342, -32.938785 ], [ 151.75840980000001, -32.9387133 ] ] } },
{ "type": "Feature", "properties": { "osmid": "398832534", "name": "Union Street", "highway": "tertiary", "maxspeed": "50", "oneway": false, "reversed": "True", "length": 11.625, "lanes": null, "service": null }, "geometry": { "type": "LineString", "coordinates": [ [ 151.7584684, -32.9387987 ], [ 151.758544300000011, -32.9387158 ] ] } },
{ "type": "Feature", "properties": { "osmid": "907594553", "name": null, "highway": "footway", "maxspeed": null, "oneway": false, "reversed": "False", "length": 10.51, "lanes": null, "service": null }, "geometry": { "type": "LineString", "coordinates": [ [ 151.7584684, -32.9387987 ], [ 151.758581, -32.9388007 ] ] } },
{ "type": "Feature", "properties": { "osmid": "907594553", "name": null, "highway": "footway", "maxspeed": null, "oneway": false, "reversed": "True", "length": 11.565, "lanes": null, "service": null }, "geometry": { "type": "LineString", "coordinates": [ [ 151.7584684, -32.9387987 ], [ 151.7583445, -32.9387966 ] ] } },
{ "type": "Feature", "properties": { "osmid": "398832521", "name": "Glebe Road", "highway": "secondary", "maxspeed": "50", "oneway": false, "reversed": "False", "length": 12.555, "lanes": null, "service": null }, "geometry": { "type": "LineString", "coordinates": [ [ 151.75840980000001, -32.9387133 ], [ 151.758544300000011, -32.9387158 ] ] } },
{ "type": "Feature", "properties": { "osmid": "1213781351", "name": null, "highway": "footway", "maxspeed": null, "oneway": false, "reversed": "False", "length": 10.646, "lanes": null, "service": null }, "geometry": { "type": "LineString", "coordinates": [ [ 151.75840980000001, -32.9387133 ], [ 151.7583342, -32.938785 ] ] } },
{ "type": "Feature", "properties": { "osmid": "1213781351", "name": null, "highway": "footway", "maxspeed": null, "oneway": false, "reversed": "True", "length": 11.944, "lanes": null, "service": null }, "geometry": { "type": "LineString", "coordinates": [ [ 151.75840980000001, -32.9387133 ], [ 151.758494399999989, -32.9386327 ] ] } },
{ "type": "Feature", "properties": { "osmid": "398832521", "name": "Glebe Road", "highway": "secondary", "maxspeed": "50", "oneway": false, "reversed": "True", "length": 117.806, "lanes": null, "service": null }, "geometry": { "type": "LineString", "coordinates": [ [ 151.75840980000001, -32.9387133 ], [ 151.7583808, -32.9387122 ], [ 151.75714880000001, -32.9386638 ] ] } },
{ "type": "Feature", "properties": { "osmid": "347014133", "name": "Glebe Road", "highway": "secondary", "maxspeed": "50", "oneway": false, "reversed": "True", "length": 12.248, "lanes": null, "service": null }, "geometry": { "type": "LineString", "coordinates": [ [ 151.75867550000001, -32.9387188 ], [ 151.758544300000011, -32.9387158 ] ] } },
{ "type": "Feature", "properties": { "osmid": "1213781349", "name": null, "highway": "footway", "maxspeed": null, "oneway": false, "reversed": "False", "length": 9.01, "lanes": null, "service": null }, "geometry": { "type": "LineString", "coordinates": [ [ 151.75867550000001, -32.9387188 ], [ 151.7586169, -32.9387832 ] ] } },
{ "type": "Feature", "properties": { "osmid": "1213781349", "name": null, "highway": "footway", "maxspeed": null, "oneway": false, "reversed": "True", "length": 12.269, "lanes": null, "service": null }, "geometry": { "type": "LineString", "coordinates": [ [ 151.75867550000001, -32.9387188 ], [ 151.7587562, -32.9386317 ] ] } },
{ "type": "Feature", "properties": { "osmid": "347014133", "name": "Glebe Road", "highway": "secondary", "maxspeed": "50", "oneway": false, "reversed": "False", "length": 166.85, "lanes": null, "service": null }, "geometry": { "type": "LineString", "coordinates": [ [ 151.75867550000001, -32.9387188 ], [ 151.7587215, -32.9387196 ], [ 151.7604455, -32.9387509 ], [ 151.760463, -32.9387511 ] ] } },
{ "type": "Feature", "properties": { "osmid": "675793035", "name": "Union Street", "highway": "secondary", "maxspeed": "40", "oneway": false, "reversed": "False", "length": 12.268, "lanes": null, "service": null }, "geometry": { "type": "LineString", "coordinates": [ [ 151.7586253, -32.9386289 ], [ 151.758544300000011, -32.9387158 ] ] } },
{ "type": "Feature", "properties": { "osmid": "1213781350", "name": null, "highway": "footway", "maxspeed": null, "oneway": false, "reversed": "False", "length": 11.879, "lanes": null, "service": null }, "geometry": { "type": "LineString", "coordinates": [ [ 151.7586253, -32.9386289 ], [ 151.758752500000014, -32.9386248 ] ] } },
{ "type": "Feature", "properties": { "osmid": "1213781350", "name": null, "highway": "footway", "maxspeed": null, "oneway": false, "reversed": "True", "length": 10.786, "lanes": null, "service": null }, "geometry": { "type": "LineString", "coordinates": [ [ 151.7586253, -32.9386289 ], [ 151.758509800000013, -32.9386326 ] ] } },
{ "type": "Feature", "properties": { "osmid": "675793035", "name": "Union Street", "highway": "secondary", "maxspeed": "40", "oneway": false, "reversed": "True", "length": 106.856, "lanes": null, "service": null }, "geometry": { "type": "LineString", "coordinates": [ [ 151.7586253, -32.9386289 ], [ 151.7586556, -32.9385963 ], [ 151.759313, -32.937886 ], [ 151.7593276, -32.9378699 ] ] } },
{ "type": "Feature", "properties": { "osmid": "675793033", "name": "Union Street", "highway": "secondary", "maxspeed": "40", "oneway": false, "reversed": "False", "length": 8.547, "lanes": null, "service": null }, "geometry": { "type": "LineString", "coordinates": [ [ 151.7594397, -32.9377455 ], [ 151.759385400000014, -32.9378074 ] ] } },
{ "type": "Feature", "properties": { "osmid": "895780478", "name": null, "highway": "footway", "maxspeed": null, "oneway": false, "reversed": "False", "length": 8.044, "lanes": null, "service": null }, "geometry": { "type": "LineString", "coordinates": [ [ 151.7594397, -32.9377455 ], [ 151.7595045, -32.9377932 ] ] } },
{ "type": "Feature", "properties": { "osmid": "895780478", "name": null, "highway": "footway", "maxspeed": null, "oneway": false, "reversed": "True", "length": 8.197, "lanes": null, "service": null }, "geometry": { "type": "LineString", "coordinates": [ [ 151.7594397, -32.9377455 ], [ 151.75936870000001, -32.9377021 ] ] } },
{ "type": "Feature", "properties": { "osmid": "675793033", "name": "Union Street", "highway": "secondary", "maxspeed": "40", "oneway": false, "reversed": "True", "length": 147.98, "lanes": null, "service": null }, "geometry": { "type": "LineString", "coordinates": [ [ 151.7594397, -32.9377455 ], [ 151.7594574, -32.9377256 ], [ 151.7604033, -32.9366886 ] ] } },
{ "type": "Feature", "properties": { "osmid": "675793040", "name": "Kenrick Street", "highway": "residential", "maxspeed": "40", "oneway": false, "reversed": "False", "length": 8.471, "lanes": null, "service": null }, "geometry": { "type": "LineString", "coordinates": [ [ 151.7593156, -32.9377587 ], [ 151.759385400000014, -32.9378074 ] ] } },
{ "type": "Feature", "properties": { "osmid": "895780477", "name": null, "highway": "footway", "maxspeed": null, "oneway": false, "reversed": "False", "length": 8.01, "lanes": null, "service": null }, "geometry": { "type": "LineString", "coordinates": [ [ 151.7593156, -32.9377587 ], [ 151.75936870000001, -32.9377021 ] ] } },
{ "type": "Feature", "properties": { "osmid": "895780477", "name": null, "highway": "footway", "maxspeed": null, "oneway": false, "reversed": "True", "length": 8.931, "lanes": null, "service": null }, "geometry": { "type": "LineString", "coordinates": [ [ 151.7593156, -32.9377587 ], [ 151.7592549, -32.9378208 ] ] } },
{ "type": "Feature", "properties": { "osmid": "675793040", "name": "Kenrick Street", "highway": "residential", "maxspeed": "40", "oneway": false, "reversed": "True", "length": 59.408, "lanes": null, "service": null }, "geometry": { "type": "LineString", "coordinates": [ [ 151.7593156, -32.9377587 ], [ 151.75929, -32.9377426 ], [ 151.7588096, -32.9374345 ] ] } },
{ "type": "Feature", "properties": { "osmid": "675793035", "name": "Union Street", "highway": "secondary", "maxspeed": "40", "oneway": false, "reversed": "True", "length": 8.797, "lanes": null, "service": null }, "geometry": { "type": "LineString", "coordinates": [ [ 151.7593276, -32.9378699 ], [ 151.759385400000014, -32.9378074 ] ] } },
{ "type": "Feature", "properties": { "osmid": "895780480", "name": null, "highway": "footway", "maxspeed": null, "oneway": false, "reversed": "False", "length": 7.997, "lanes": null, "service": null }, "geometry": { "type": "LineString", "coordinates": [ [ 151.7593276, -32.9378699 ], [ 151.7593975, -32.9379115 ] ] } },
{ "type": "Feature", "properties": { "osmid": "895780480", "name": null, "highway": "footway", "maxspeed": null, "oneway": false, "reversed": "True", "length": 8.708, "lanes": null, "service": null }, "geometry": { "type": "LineString", "coordinates": [ [ 151.7593276, -32.9378699 ], [ 151.7592549, -32.9378208 ] ] } },
{ "type": "Feature", "properties": { "osmid": "675793035", "name": "Union Street", "highway": "secondary", "maxspeed": "40", "oneway": false, "reversed": "False", "length": 106.856, "lanes": null, "service": null }, "geometry": { "type": "LineString", "coordinates": [ [ 151.7593276, -32.9378699 ], [ 151.759313, -32.937886 ], [ 151.7586556, -32.9385963 ], [ 151.7586253, -32.9386289 ] ] } },
{ "type": "Feature", "properties": { "osmid": "675793034", "name": "Kenrick Street", "highway": "residential", "maxspeed": "40", "oneway": false, "reversed": "True", "length": 8.114, "lanes": null, "service": null }, "geometry": { "type": "LineString", "coordinates": [ [ 151.7594516, -32.9378547 ], [ 151.759385400000014, -32.9378074 ] ] } },
{ "type": "Feature", "properties": { "osmid": "895780481", "name": null, "highway": "footway", "maxspeed": null, "oneway": false, "reversed": "False", "length": 8.434, "lanes": null, "service": null }, "geometry": { "type": "LineString", "coordinates": [ [ 151.7594516, -32.9378547 ], [ 151.7595045, -32.9377932 ] ] } },
{ "type": "Feature", "properties": { "osmid": "895780481", "name": null, "highway": "footway", "maxspeed": null, "oneway": false, "reversed": "True", "length": 8.086, "lanes": null, "service": null }, "geometry": { "type": "LineString", "coordinates": [ [ 151.7594516, -32.9378547 ], [ 151.7593975, -32.9379115 ] ] } },
{ "type": "Feature", "properties": { "osmid": "675793034", "name": "Kenrick Street", "highway": "residential", "maxspeed": "40", "oneway": false, "reversed": "False", "length": 42.902, "lanes": null, "service": null }, "geometry": { "type": "LineString", "coordinates": [ [ 151.7594516, -32.9378547 ], [ 151.7594776, -32.9378721 ], [ 151.7598084, -32.938098 ] ] } }
]
}
